X,Y,OBJECTID,NAME,ADDRESS,DIRECTOR,PHONE,AUTHORIZER,GRADES,ENROLLMENT,GIS_ID,WEB_URL,AUTHORIZAT,MYSCHOOL,SCHOOL_YEA,LEA_NAME,LEA_ID,SCHOOL_NAM,SCHOOL_ID,SCHOOLCODE,GRADES_1,LATITUDE,LONGITUDE,FACILITY_ID,CLUSTER_,WARD,ZIPCODE,MAR_ID,XCOORD,YCOORD,SE_ANNO_CAD_DATA,GLOBALID,CREATOR,CREATED,EDITOR,EDITED
-76.9991962883333,38.8642234799153,1601,Cedar Tree Academy PCS,701 HOWARD ROAD SE,Dr. Latonya Henderson,202-610-4193,,PK3-2nd,0,chrt_111,https://cedartree-dc.org/,0,Y,2023-2024,Cedar Tree Academy PCS,123,Cedar Tree Academy PCS,188,188,PK3-2nd,38.86421603,-76.99919401,PCSB_57BLD,Cluster 37,Ward 8,20020,300872,400069.95,132932.97,,{AE38961C-2CCF-486C-9C13-85A7A1714E7B},JLAY,2023/08/23 18:04:14+00,JLAY,2023/06/29 14:34:18+00
-77.0110025175251,38.9420432838121,1602,Creative Minds International PCS,3700 NORTH CAPITOL STREET NW,"Golnar Abedin, Ph.D.",202-588-0370,,PK3-8th,0,chrt_8,https://www.creativemindspcs.org/,0,Y,2023-2024,Creative Minds International PCS,169,Creative Minds International PCS,3069,3069,PK3-8th,38.93654816,-77.00695403,PCSB_114BLD,Cluster 21,Ward 5,20011,291848,399397.09,140962.44,,{847897C4-27B0-43B7-A64F-700176105BDE},DCGIS,2023/08/26 03:22:10+00,JLAY,2023/06/29 14:34:18+00
-77.0066401453936,38.9549301091153,1603,DC Bilingual PCS,33 RIGGS ROAD NE,Tehani Collazo,202-750-6674,,PK3-5th,0,chrt_9,https://dcbilingual.org/,0,Y,2023-2024,DC Bilingual PCS,114,DC Bilingual PCS,199,199,PK3-5th,38.95492264,-77.00663786,DGS_0776.0,Cluster 19,Ward 5,20011,155991,399424.65,143002.17,,{34687849-1D12-40A8-96A1-FAA4CF9B0249},JLAY,2023/08/23 18:04:14+00,JLAY,2023/06/29 14:34:18+00
-76.9847347571742,38.8646537179617,1604,DC Prep PCS - Anacostia Elementary,1409 V STREET SE,Rick Cruz,202-729-3500,,PK3-2nd,0,chrt_125,https://www.dcprep.org/Anacostia_Elementary_Campus,0,Y,2023-2024,DC Prep PCS - Anacostia Elementary School,115,DC Prep PCS - Anacostia Elementary School,276,276,PK3-2nd,38.86464627,-76.98473248,PCSB_131BLD,Cluster 28,Ward 8,20020,301493,401325.02,132980.84,,{53BEE793-4CBD-486E-BF1E-4232BA0E9FF3},JLAY,2023/11/21 16:46:25+00,JLAY,2023/06/29 14:34:18+00
-76.9448237483655,38.8910292565287,1605,DC Prep PCS - Benning Elementary,100 41ST STREET NE,Rick Cruz,202-398-2838,,PK3-3rd,0,chrt_11,https://www.dcprep.org/Benning_Elementary_Campus,0,Y,2023-2024,DC Prep PCS - Benning Elementary School ,115,DC Prep PCS - Benning Elementary School ,1110,1110,PK3-3rd,38.8910218,-76.94482148,DGS_0185.0,Cluster 32,Ward 7,20019,294468,404787,135910.06,,{13F8E13B-F33D-4859-9B81-E7726C84FAF1},JLAY,2023/11/21 16:46:25+00,JLAY,2023/06/29 14:34:18+00
-76.9997524336695,38.8428492653099,1606,Academy of Hope Adult PCS [Southeast],421 ALABAMA AVENUE SE,Lecester Johnson,202-373-0246,,Adult,0,chrt_29,https://aohdc.org/,0,N,2023-2024,Academy of Hope Adult PCS [Southeast],178,Academy of Hope Adult PCS [Southeast],233,233,Adult,38.84284182,-76.99975015,PCSB_102BLD,Cluster 39,Ward 8,20032,25545,400021.69,130560.28,,{CE941A1E-F2A8-4B94-9222-6EFBB7003279},JLAY,2023/08/23 18:04:14+00,JLAY,2023/06/29 14:34:18+00
-76.9922710951219,38.8343356602558,1607,Achievement Prep PCS - Wahler Place Elementary,908 WAHLER PLACE SE,Shantelle Wright,202-562-1307,,PK3-4th,0,chrt_98,https://achievementprep.org/our-story/wahler-place-elementary-school/,0,Y,2023-2024,Achievement Preparatory Academy PCS - Wahler Place Elementary School,129,Achievement Preparatory Academy PCS - Wahler Place Elementary School,217,217,PK3-4th,38.83432822,-76.99226882,DGS_0761.0,Cluster 39,Ward 8,20032,294502,400671.25,129615.24,,{DCC708B8-8B3D-4C82-B3F0-52122C79A9C6},JLAY,2023/11/21 16:46:25+00,JLAY,2023/06/29 14:34:18+00
-77.0232235855586,38.8952218443935,1608,BASIS DC PCS,410 8TH STREET NW,Carolyn McGarvy,202-393-5437,,5th-12th,0,chrt_106,https://enrollbasis.com/washington-dc/,0,Y,2023-2024,Basis DC PCS,168,Basis DC PCS,3068,3068,5th-12th,38.89521439,-77.0232213,PCSB_10BLD,Cluster 8,Ward 2,20004,279758,397985.56,136374.28,,{56985F6F-2C40-469B-96DE-06335ACA94F2},JLAY,2023/08/23 18:04:14+00,JLAY,2023/06/29 14:34:18+00
-77.0144062608185,38.9734210795416,1609,Breakthrough Montessori PCS,6923 WILLOW STREET NW,Edwin Strickland,202-407-7022,,PK3-5th,0,chrt_124,https://www.breakthroughmontessori.org/,0,Y,2023-2024,Breakthrough Montessori PCS [Eastern Ave],189,Breakthrough Montessori PCS [Eastern Ave],289,289,PK3-5th,38.973413,-77.014404,PCSB_136BLD,Cluster 17,Ward 4,20012,320150,398751.83,145054.92,,{2FA514FF-945A-491E-AECC-F7C89E325EB1},JLAY,2023/08/23 18:04:14+00,JLAY,2023/06/29 14:34:18+00
-77.0074813282888,38.9528699571774,1610,Bridges PCS,100 GALLATIN STREET NE,Olivia Smith,202-545-0515,,PK3-5th,0,chrt_107,https://bridgespcs.org/,0,Y,2023-2024,Bridges PCS,107,Bridges PCS,142,142,PK3-5th,38.95286249,-77.00747904,DGS_0191.0,Cluster 19,Ward 5,20011,294470,399351.72,142773.48,,{FE6FCC8F-AA78-4CEC-8195-35FED19B4973},JLAY,2023/08/23 18:04:14+00,JLAY,2023/06/29 14:34:18+00
-77.0405557423011,38.9343258161934,1611,Briya PCS [Bancroft/Mount Pleasant],1755 NEWTON STREET NW,,202-797-7337,,"PK3-PK4; Adult",0,chrt_41,https://www.briya.org/,0,N,2023-2024,Briya PCS [Bancroft/Mount Pleasant],119,Briya PCS [Bancroft/Mount Pleasant],126,126,"PK3-PK4; Adult",38.93431836,-77.04055344,DGS_0343.0,Cluster 2,Ward 1,20010,294528,396483.93,140715.67,,{6F1B88D6-CE7F-4006-BDFF-CB0538DA72FC},JLAY,2023/08/23 18:04:14+00,JLAY,2023/06/29 14:34:18+00
-76.9778407107336,38.9207866610865,1612,Academy of Hope Adult PCS [18th Place],2315 18TH PLACE NE,Lecester Johnson,202-269-6623,,Adult,0,chrt_28,https://aohdc.org/,0,N,2023-2024,Academy of Hope Adult PCS [18th Place],178,Academy of Hope Adult PCS [18th Place],233,233,Adult,38.9207792,-76.97783843,PCSB_90BLD,Cluster 22,Ward 5,20018,48796,401921.82,139212.16,,{B403BBF0-282E-4E93-B408-9A617D37ECFE},JLAY,2023/08/23 18:04:14+00,JLAY,2023/06/29 14:34:18+00
-77.0027667421266,38.923693282692,1613,Inspired Teaching Demonstration PCS,200 DOUGLAS STREET NE,Deborah Dantzler Williams,202-248-6825,,PK3-8th,0,chrt_2,https://www.inspiredteachingschool.org/,0,Y,2023-2024,Inspired Teaching Demonstration PCS,165,Inspired Teaching Demonstration PCS,3064,3064,PK3-8th,38.92368582,-77.00276446,DGS_0768.0,Cluster 21,Ward 5,20002,53086,399760.28,139534.59,,{5A86D887-F07A-4F7B-A8BA-3D5B9E481C24},JLAY,2023/08/23 18:04:14+00,JLAY,2023/06/29 14:34:18+00
-76.9862157082196,38.8958577095,1614,Kingsman Academy PCS,1375 E STREET NE,Shannon Hodge,202-547-1028,,6th-12th,0,chrt_137,https://www.kingsmanacademy.org/,0,Y,2023-2024,Kingsman Academy PCS,186,Kingsman Academy PCS,267,267,6th-12th,38.89585026,-76.98621343,DGS_0801.0,Cluster 25,Ward 6,20002,286107,401195.97,136444.7,,{7F757911-53D8-4150-BDC0-E8BAA788DF7F},JLAY,2023/08/23 18:04:14+00,JLAY,2023/06/29 14:34:18+00
-76.9880511195187,38.8566297626228,1615,KIPP DC - AIM Academy PCS,2600 DOUGLASS ROAD SE,Susan Schaeffler,202-678-5477,,5th-8th,0,chrt_53,https://www.kippdc.org/schools/middle-schools/kipp-dc-aim-academy/,0,Y,2023-2024,KIPP DC - AIM Academy PCS,129,KIPP DC - AIM Academy PCS,116,116,5th-8th,38.85662232,-76.98804884,DGS_0431.0,Cluster 37,Ward 8,20020,311456,401037.32,132090.08,,{7C601DDA-87D3-483C-AC94-3541FD73656F},JLAY,2023/08/23 18:04:14+00,JLAY,2023/06/29 14:34:18+00
-76.9725939364155,38.8692540959151,1616,Lee Montessori PCS - East End,2345 R STREET SE,Alex Brown,202-996-6700,,PK3-2nd,0,chrt_156,https://leemontessori.org/,0,Y,2023-2024,Lee Montessori PCS - East End,177,Lee Montessori PCS - East End,1141,1141,PK3-2nd,38.869246,-76.972592,,,Ward 8,20020,286946,402378.53,133491.76,,{5D6AB6CC-31E7-45A3-9C7C-98FD167C3329},JLAY,2023/08/23 18:04:14+00,JLAY,2023/06/29 14:34:18+00
-76.9712184576338,38.9011359501502,1617,Two Rivers PCS at Young Elementary School,820 26TH STREET NE,Jessica Wodatch,202-388-1360,,PK3-8th,0,chrt_131,https://www.tworiverspcs.org/,0,Y,2023-2024,Two Rivers PCS - Young,149,Two Rivers PCS - Young,270,270,PK3-8th,38.90112849,-76.97121618,DGS_0783.0,Cluster 23,Ward 5,20002,294499,402496.78,137030.93,,{137B0FC2-976E-4706-984D-C5720EB3A6EB},JLAY,2023/08/23 18:04:14+00,JLAY,2023/06/29 14:34:18+00
-77.0195453721212,38.8841259990102,1618,Washington Global Public Charter School,525 SCHOOL STREET SW,,202-796-2415,,6th-8th,0,chrt_127,https://www.washingtonglobal.org/,0,Y,2023-2024,Washington Global PCS,185,Washington Global PCS,263,263,6th-8th,38.88411855,-77.01954308,PCSB_109BLD,Cluster 9,Ward 6,20024,11149,398304.38,135142.48,,{0414BB94-9D59-4A1C-90E9-209D558C3278},JLAY,2023/08/23 18:04:14+00,JLAY,2023/06/29 14:34:18+00
-77.0224186689895,38.9456093567357,1619,E.L. Haynes PCS - Elementary School,4501 KANSAS AVENUE NW,Jennie Niles,202-667-4446,,PK3-4th,0,chrt_18,https://www.elhaynes.org/,0,Y,2023-2024,E.L. Haynes PCS - Elementary School,116,E.L. Haynes PCS - Elementary School,1206,1206,PK3-4th,38.94560189,-77.02241638,DGS_0625.0,Cluster 18,Ward 4,20011,284930,398056.76,141967.7,,{1A764DC9-3065-4E0A-B5C6-FA6453A58777},JLAY,2023/08/23 18:04:14+00,JLAY,2023/06/29 14:34:18+00
-76.9448237483655,38.8910292565287,1620,DC Prep PCS - Benning Middle,100 41ST STREET NE,Rick Cruz,202-396-3780,,4th-8th,0,chrt_12,https://www.dcprep.org/Benning_Middle_Campus,0,Y,2023-2024,DC Prep PCS - Benning Middle School,115,DC Prep PCS - Benning Middle School,218,218,4th-8th,38.8910218,-76.94482148,DGS_0185.0,Cluster 32,Ward 7,20019,294468,404787,135910.06,,{FFA3CDAD-8610-410E-8D18-744EEE9B7655},JLAY,2023/11/21 16:46:25+00,JLAY,2023/06/29 14:34:18+00
-76.995737360688,38.9242844539218,1621,DC Prep PCS - Edgewood Elementary,707 EDGEWOOD STREET NE,Rick Cruz,202-635-4411,,PK3-3rd,0,chrt_13,https://www.dcprep.org/Edgewood_Elementary_Campus,0,Y,2023-2024,DC Prep PCS - Edgewood Elementary School,115,DC Prep PCS - Edgewood Elementary School,130,130,PK3-3rd,38.92427699,-76.99573508,PCSB_31BLD,Cluster 21,Ward 5,20017,289577,400369.83,139600.22,,{1B601998-1C08-424C-A22B-1777F6E2CA6A},JLAY,2023/11/21 16:46:25+00,JLAY,2023/06/29 14:34:18+00
-76.9960113380538,38.924746500318,1622,DC Prep PCS - Edgewood Middle,701 EDGEWOOD STREET NE,Rick Cruz,202-832-5700,,4th-8th,0,chrt_14,https://www.dcprep.org/Edgewood_Middle_Campus,0,Y,2023-2024,DC Prep PCS - Edgewood Middle School,115,DC Prep PCS - Edgewood Middle School,196,196,4th-8th,38.92473904,-76.99600905,PCSB_33BLD,Cluster 21,Ward 5,20017,289579,400346.07,139651.51,,{C806721C-741B-431D-B6B4-EB6E5BB3B451},JLAY,2023/11/21 16:46:25+00,JLAY,2023/06/29 14:34:18+00
-76.9217450852098,38.8894869932488,1623,DC Scholars PCS,5601 EAST CAPITOL STREET SE,Lars Beck,202-559-6138,,PK3-8th,0,chrt_15,https://dcscholars.org/dcspcs/,0,Y,2023-2024,DC Scholars PCS,170,DC Scholars PCS,3070,3070,PK3-8th,38.88947954,-76.92174283,DGS_0187.0,Cluster 33,Ward 7,20019,294610,406789.33,135740.32,,{10BF7B09-D2E9-4DF9-ABDB-43C362D73F15},JLAY,2023/08/23 18:04:14+00,JLAY,2023/06/29 14:34:18+00
-76.9981450600538,38.8435047055056,1624,Democracy Prep Congress Heights PCS,3100 MARTIN LUTHER KING JR AVENUE SE,Sean Reidy,202-561-0860,,PK3-8th,0,chrt_95,https://democracyprep.org/,0,Y,2023-2024,Democracy Prep Congress Heights PCS,179,Democracy Prep Congress Heights PCS,234,234,PK3-8th,38.84349726,-76.99814278,DGS_0796.0,Cluster 39,Ward 8,20032,301280,400161.23,130633.04,,{0209B264-B57A-4591-8D3F-48186CA55A2C},JLAY,2023/08/23 18:04:14+00,JLAY,2023/06/29 14:34:18+00
-77.0342033705609,38.9729373843229,1625,District of Columbia International School,1400 MAIN DRIVE NW,Mary Shaffner,202-808-9033,,6th-11th,0,chrt_44,https://dcinternationalschool.org/,0,Y,2023-2024,District of Columbia International School,181,District of Columbia International School,248,248,6th-11th,38.97292958,-77.03420107,PCSB_132BLD,Cluster 17,Ward 4,20012,316323,397036.3,145001.68,,{D5894740-1EFF-4654-8A4D-9519EF6159E8},JLAY,2023/08/23 18:04:14+00,JLAY,2023/06/29 14:34:18+00
-77.0224186689895,38.9456093567357,1626,E.L. Haynes PCS - High School,4501 KANSAS AVENUE NW,Jennie Niles,202-667-4446,,9th-12th,0,chrt_17,https://www.elhaynes.org/,0,Y,2023-2024,E.L. Haynes PCS - High School,116,E.L. Haynes PCS - High School,1138,1138,9th-12th,38.94560189,-77.02241638,DGS_0625.0,Cluster 18,Ward 4,20011,284930,398056.76,141967.7,,{A198F0E8-0E56-4FB0-9069-3D4A24C5C801},JLAY,2023/08/23 18:04:14+00,JLAY,2023/06/29 14:34:18+00
-76.9770877740855,38.8433820290288,1627,AppleTree Early Learning PCS - Parklands @ THEARC,1801 MISSISSIPPI AVENUE SE,Michaele Samuel,202-526-1503,,PK3-PK4,0,chrt_101,https://www.appletreeinstitute.org/,0,Y,2023-2024,AppleTree Early Learning Center PCS - Parklands at THEARC,103,AppleTree Early Learning Center PCS - Parklands at THEARC,1069,1069,PK3-PK4,38.84337425,-76.9770855,PCSB_141BLD,Cluster 38,Ward 8,20032,313139,401989.27,130619.67,,{98EF5C19-1E7D-4EB3-BCB7-608A66A87AC4},JLAY,2023/08/23 18:04:14+00,JLAY,2023/06/29 14:34:18+00
-77.0188065377539,38.8844060108643,1628,AppleTree Early Learning PCS - Southwest,488 VIRGINIA AVENUE SW,Michaele Samuel,202-646-0500,,PK3-PK4,0,chrt_99,https://www.appletreeinstitute.org/,0,Y,2023-2024,AppleTree Early Learning Center PCS - Southwest,146,AppleTree Early Learning Center PCS - Southwest,141,141,PK3-PK4,38.88439823,-77.01880425,DGS_0739.0,Cluster 9,Ward 6,20024,331224,398368.49,135173.55,,{6B22E659-0314-4A23-A48F-2132AC65B441},JLAY,2023/08/23 18:04:14+00,JLAY,2023/06/29 14:34:18+00
-76.9755852224314,38.8946032679154,1629,AppleTree Early Learning - Oklahoma Ave (Kingman Park/NE),330 21ST STREET NE,Michaele Samuel,202-629-2179,,PK3-PK4,0,chrt_103,https://www.appletreeinstitute.org/,0,Y,2023-2024,AppleTree Early Learning - Oklahoma Ave (Kingman Park/NE),103,AppleTree Early Learning - Oklahoma Ave (Kingman Park/NE),1137,1137,PK3-PK4,38.89459581,-76.97558295,PCSB_6BLD,Cluster 25,Ward 7,20002,307321,402118.19,136305.64,,{B9362BEA-7FA4-41DA-9B4C-A9532DD4EF69},JLAY,2023/08/23 18:04:14+00,JLAY,2023/06/29 14:34:18+00
-76.9906426517738,38.8807021987916,1630,Digital Pioneers Academy PCS - Capitol Hill,709 12TH STREET SE,,202-677-3522,,6th-8th,0,chrt_141,https://www.digitalpioneersacademy.org/,0,Y,2023-2024,Digital Pioneers Academy PCS,317,Digital Pioneers Academy PCS,1038,1038,6th-8th,38.880695,-76.99064,PCSB_137BLD,Cluster 35,Ward 6,20003,76726,400812.11,134762.27,,{099C7D29-3F65-455F-97BC-113580448D35},JLAY,2023/08/23 18:04:14+00,JLAY,2023/06/29 14:34:18+00
-76.9922710951219,38.8343356602558,1631,Digital Pioneers Academy PCS - Johenning,908 WAHLER PLACE SE,,,,6th-10th,,chrt_169,https://www.digitalpioneersacademy.org/,,Y,2023-2024,Digital Pioneers Academy PCS,317,Digital Pioneers Academy PCS,0,,6th-10th,38.834328,-76.992269,,,Ward 8,20032,294502,400671.25,129615.24,,{8BECEA88-7E37-4D58-86CE-EF5D4CD8BE3F},JLAY,2023/08/23 18:04:14+00,JLAY,2023/06/29 14:34:18+00
-76.9749223728434,38.8487707051887,1632,AppleTree Early Learning PCS - Douglas Knoll,2017 SAVANNAH TERRACE SE,Michaele Samuel,202-629-2545,,PK3-PK4,0,chrt_104,https://www.appletreeinstitute.org/,0,Y,2023-2024,AppleTree Early Learning Center PCS - Douglas Knoll,103,AppleTree Early Learning Center PCS - Douglas Knoll,3072,3072,PK3-PK4,38.84876326,-76.9749201,PCSB_4BLD,Cluster 38,Ward 8,20020,278045,402177.09,131217.9,,{E206DC24-9CBE-4150-82CC-D3D5CD38B8F4},JLAY,2023/08/23 18:04:14+00,JLAY,2023/06/29 14:34:18+00
-77.0299558010421,38.9187568767059,1633,Meridian Public Charter School - Elementary School,2120 13TH STREET NW,Kimberly Moore,202-387-9830,,PK3-5th,0,chrt_178,https://www.mpcs-dc.org/,0,Y,2023-2024,Meridian Public Charter School - Elementary School,135,Meridian Public Charter School - Elementary School,165,165,PK3-5th,38.91874942,-77.02995351,DGS_0273.0,Cluster 3,Ward 1,20009,310205,397402.4,138987.03,,{38C71131-025B-45A3-BDB5-8D2583832E9D},JLAY,2023/08/23 18:04:14+00,JLAY,2023/06/29 14:34:18+00
-77.0327461117814,38.9252514904884,1634,AppleTree Early Learning PCS - Columbia Heights,2750 14TH STREET NW,Michaele Samuel,202-667-9490,,PK3-PK4,0,chrt_100,https://www.appletreeinstitute.org/,0,Y,2023-2024,AppleTree Early Learning Center PCS - Columbia Heights,103,AppleTree Early Learning Center PCS - Columbia Heights,140,140,PK3-PK4,38.92524403,-77.03274382,PCSB_3BLD,Cluster 2,Ward 1,20009,297626,397160.68,139708.07,,{43C23ECA-52A8-42EB-A571-0F0F5A18974E},JLAY,2023/08/23 18:04:14+00,JLAY,2023/06/29 14:34:18+00
-76.9905379527623,38.8915208793539,1635,AppleTree Early Learning PCS - Lincoln Park,138 12TH STREET NE,Michaele Samuel,202-621-6581,,PK3-PK4,0,chrt_102,https://www.appletreeinstitute.org/,0,Y,2023-2024,AppleTree Early Learning Center PCS - Lincoln Park,103,AppleTree Early Learning Center PCS - Lincoln Park,3073,3073,PK3-PK4,38.89151343,-76.99053567,PCSB_5BLD,Cluster 26,Ward 6,20002,65489,400821.07,135963.23,,{178A6942-EC32-4B16-B6CE-0108076FCFF7},JLAY,2023/08/23 18:04:14+00,JLAY,2023/06/29 14:34:18+00
-77.0283308342394,38.9631994207221,1636,Center City PCS - Brightwood,6008 GEORGIA AVENUE NW,Russ Williams,202-723-3322,,PK3-8th,0,chrt_112,https://centercitypcs.org/campuses/brightwood-campus/,0,Y,2023-2024,Center City PCS - Brightwood,156,Center City PCS - Brightwood,1103,1103,PK3-8th,38.96319196,-77.02832854,PCSB_15BLD,Cluster 17,Ward 4,20011,253198,397544.85,143920.5,,{98281E18-4CC5-457E-98B5-6BDCE3DAB58C},JLAY,2023/08/23 18:04:14+00,JLAY,2023/06/29 14:34:18+00
-76.9833068334671,38.8895332726725,1637,Center City PCS - Capitol Hill,1503 EAST CAPITOL STREET SE,Russ Williams,202-547-7556,,PK3-8th,0,chrt_113,https://centercitypcs.org/campuses/capitol-hill/,0,Y,2023-2024,Center City PCS - Capitol Hill,156,Center City PCS - Capitol Hill,1104,1104,PK3-8th,38.88952582,-76.98330456,PCSB_16BLD,Cluster 26,Ward 7,20003,295125,401448.44,135742.68,,{803F64EA-CB38-4474-8166-A12A2347BFD2},JLAY,2023/08/23 18:04:14+00,JLAY,2023/06/29 14:34:18+00
-77.0044469103076,38.8415941236782,1638,Center City PCS - Congress Heights,220 HIGHVIEW PLACE SE,Russ Williams,202-562-7070,,PK3-8th,0,chrt_114,https://centercitypcs.org/campuses/congress-heights/,0,Y,2023-2024,Center City PCS - Congress Heights,156,Center City PCS - Congress Heights,1105,1105,PK3-8th,38.84158668,-77.00444463,PCSB_17BLD,Cluster 39,Ward 8,20032,303702,399614.14,130420.96,,{97D58F28-5263-46CB-B78C-784B734A3441},JLAY,2023/08/23 18:04:14+00,JLAY,2023/06/29 14:34:18+00
-77.0209089625485,38.9438786043823,1639,Center City PCS - Petworth,510 WEBSTER STREET NW,Russ Williams,202-726-9212,,PK3-8th,0,chrt_115,https://centercitypcs.org/campuses/petworth/,0,Y,2023-2024,Center City PCS - Petworth,156,Center City PCS - Petworth,1106,1106,PK3-8th,38.94387114,-77.02090667,PCSB_18BLD,Cluster 18,Ward 4,20011,303332,398187.59,141775.54,,{D29BAF94-4857-4642-ADB6-3F66A6089D69},JLAY,2023/08/23 18:04:14+00,JLAY,2023/06/29 14:34:18+00
-77.0226678155815,38.9074519711772,1640,Center City PCS - Shaw,711 N STREET NW,Russ Williams,202-234-1093,,PK4-8th,0,chrt_116,https://centercitypcs.org/campuses/shaw/,0,Y,2023-2024,Center City PCS - Shaw,156,Center City PCS - Shaw,1107,1107,PK4-8th,38.90744452,-77.02266552,PCSB_19BLD,Cluster 7,Ward 2,20001,290191,398034.11,137731.91,,{6FAE6F47-2D24-462C-9FD9-8822F77C4FFE},JLAY,2023/08/23 18:04:14+00,JLAY,2023/06/29 14:34:18+00
-76.924647156072,38.8919556656053,1641,KIPP DC - Arts and Technology Academy PCS,5300 BLAINE STREET NE,Allison Artis,202-395-6811,,PK3-KG,0,chrt_105,https://www.kippdc.org/schools/early-childhood-schools/kipp-dc-arts-technology-academy/,0,Y,2023-2024,KIPP DC - Arts and Technology Academy PCS,129,KIPP DC - Arts and Technology Academy PCS,236,236,PK3-KG,38.89194821,-76.9246449,DGS_0791.0,Cluster 31,Ward 7,20019,304054,406537.33,136014.15,,{21C9AAB7-39A2-4F1E-A2B8-4269B956D841},JLAY,2023/08/23 18:04:14+00,JLAY,2023/06/29 14:34:18+00
-76.9951656812095,38.8323512969096,1642,KIPP DC - Legacy College Preparatory PCS,3999 8TH STREET SE,Susan Schaeffler,202-678-2527,,9th-12th,0,chrt_54,https://www.kippdc.org/schools/high-school/kipp-dc-college-preparatory/,0,Y,2023-2024,KIPP DC - College Preparatory Academy PCS,129,KIPP DC - College Preparatory Academy PCS,1123,1123,9th-12th,38.832344,-76.995163,DGS_0299.0,Cluster 23,Ward 8,20032,294588,400419.94,129394.95,,{3C55400E-F351-40E5-B367-AD0F3A907FEA},JLAY,2023/08/23 18:04:14+00,JLAY,2023/06/29 14:34:18+00
-76.9490673769665,38.9014454875865,1643,Cesar Chavez PCS for Public Policy,3701 HAYES STREET NE,Jeff Cooper,202-398-2230,,6th-12th,0,chrt_120,https://www.chavezschools.org/,0,Y,2023-2024,Cesar Chavez PCS for Public Policy - Parkside High School,109,Cesar Chavez PCS for Public Policy - Parkside High School,109,109,6th-12th,38.90143803,-76.94906511,PCSB_23BLD,Cluster 30,Ward 7,20019,304053,404418.2,137066.13,,{8BF9EEFC-C1A9-4AC3-B989-74CD0683F70A},JLAY,2023/08/23 18:04:14+00,JLAY,2023/06/29 14:34:18+00
-76.9855527043207,38.8568521685678,1644,Community College Preparatory Academy PCS [DCIA],2330 POMEROY ROAD SE,C. Vanessa Spinner,202-610-5780,,Adult,0,chrt_144,https://www.ccprep-academy.org/,0,N,2023-2024,Community College Preparatory Academy PCS [DCIA],176,Community College Preparatory Academy PCS [DCIA],216,216,Adult,38.85684472,-76.98555043,PCSB_140BLD,Cluster 37,Ward 8,20020,294542,401254.17,132114.8,,{B8F3DFA7-5BDC-466A-9328-03CEBD9A08E5},JLAY,2023/08/23 18:04:14+00,JLAY,2023/06/29 14:34:18+00
-76.9926322340775,38.8627592023516,1645,Community College Preparatory Academy PCS [Main],2405 MARTIN LUTHER KING JR AVENUE SE,C. Vanessa Spinner,202-610-5780,,Adult,0,chrt_7,https://www.ccprep-academy.org/,0,N,2023-2024,Community College Preparatory Academy PCS [Main],176,Community College Preparatory Academy PCS [Main],216,216,Adult,38.86275176,-76.99262996,PCSB_28BLD,Cluster 37,Ward 8,20020,147816,400639.64,132770.45,,{E8497E20-FAFA-4D9A-B0A5-3BABCA3C9B9D},JLAY,2023/08/23 18:04:14+00,JLAY,2023/06/29 14:34:18+00
-76.9785977940712,38.9368039428759,1646,Perry Street Preparatory PCS,1800 PERRY STREET NE,Shadwick Jenkins,202-529-4400,,PK3-8th,0,chrt_75,https://www.pspdc.org/,0,Y,2023-2024,Perry Street Preparatory PCS,125,Perry Street Preparatory PCS,161,161,PK3-8th,38.93679648,-76.97859551,DGS_0780.0,Cluster 22,Ward 5,20018,294529,401855.75,140990.2,,{0AE3651B-B277-4562-99BE-DF49E1544994},JLAY,2023/08/23 18:04:14+00,JLAY,2023/06/29 14:34:18+00
-76.9941028353089,38.8415266763965,1647,Community College Preparatory Academy PCS [MC Terrell],3301 WHEELER ROAD SE,C. Vanessa Spinner,202-770-3252,,Adult,0,chrt_145,https://www.ccprep-academy.org/,0,N,2023-2024,Community College Preparatory Academy PCS [MC Terrell],176,Community College Preparatory Academy PCS [MC Terrell],216,216,Adult,38.84151923,-76.99410056,DGS_0508.0,Cluster 39,Ward 8,20032,294563,400512.16,130413.48,,{FDBB5920-CD3A-45ED-9AAC-69690A821DEA},JLAY,2023/08/23 18:04:14+00,JLAY,2023/06/29 14:34:18+00
-76.9811382902855,38.9080814310359,1648,KIPP DC - Connect Academy PCS,1375 MOUNT OLIVET ROAD NE,,202-396-5477,,PK3-KG,0,chrt_63,https://www.kippdc.org/schools/early-childhood-schools/kipp-dc-connect-academy/,0,Y,2023-2024,KIPP DC - Connect Academy PCS,129,KIPP DC - Connect Academy PCS,209,209,PK3-KG,38.90807397,-76.98113601,DGS_0291.0,Cluster 23,Ward 5,20002,286108,401636.15,137801.71,,{54952F44-E8D9-4327-A391-B6730D4CD24B},JLAY,2023/08/23 18:04:14+00,JLAY,2023/06/29 14:34:18+00
-76.9943325167955,38.8415575957619,1649,KIPP DC - Pride Academy,3301 WHEELER ROAD SE,,,,PK3-K,,chrt_170,https://www.kippdc.org/schools/early-childhood-schools/kipp-dc-pride-academy/,,Y,2023-2024,KIPP DC - Pride Academy PCS,478,KIPP DC - Pride Academy,478,478,PK3-K,38.84155,-76.99433,,,Ward 8,20032,294563,400492.22,130416.91,,{F9504108-370F-462B-9F99-129F1D2AD6FF},JLAY,2023/08/23 18:04:14+00,JLAY,2023/06/29 14:34:18+00
-76.9943325167955,38.8415575957619,1650,KIPP DC - Inspire Academy PCS,3301 WHEELER ROAD SE,,,,1st-4th,,chrt_171,https://www.kippdc.org/schools/elementary-schools/kipp-dc-inspire-academy/,,Y,2023-2024,KIPP DC - Inspire Academy PCS,478,KIPP DC - Inspire Academy PCS,478,478,1st-4th,38.84155,-76.99433,,,Ward 8,20032,294563,400492.22,130416.91,,{0774E344-E8F9-453D-A14A-3863DF1ED2A2},JLAY,2023/08/23 18:04:14+00,JLAY,2023/06/29 14:34:18+00
-76.9714800384076,38.9011313299499,1651,Two Rivers PCS at Young Middle School,820 26TH STREET NE,,202-388-3177,,6th-8th ,,chrt_172,https://www.tworiverspcs.org/who-we-are/our-schools/middle-school/,,Y,2023-2024,Two Rivers PCS at Young Middle School,149,Two Rivers PCS at Young Middle School,480,480,6th-8th ,38.901124,-76.971478,,,Ward 5,20002,294499,402474.09,137030.41,,{94A58608-3CAE-4842-91A1-6CB06A5504ED},JLAY,2023/08/23 18:04:14+00,JLAY,2023/06/29 14:34:18+00
-76.920637522764,38.8902988919495,1652,Maya Angelou PCS,5600 EAST CAPITOL STREET NE,Sarah Navarro,202-797-8250,,9th-12th,0,chrt_174,https://www.seeforever.org/,0,N,2023-2024,Maya Angelou PCS,133,Maya Angelou PCS,209,209,9th-12th,38.89029144,-76.92063526,DGS_0686.0,Cluster 33,Ward 7,20019,289793,406885.34,135830.53,,{035F2535-D4CC-453C-B881-53B918FFF9A3},JLAY,2023/08/23 18:04:14+00,JLAY,2023/06/29 14:34:18+00
-76.9207655954983,38.9002417795129,1653,DC Wildflower PCS - The Riverseed School,913 55TH STREET NE,,,,5th-6th,0,chrt_175,https://www.dcwildflowerpcs.org/,0,Y,2023-2024,DC Wildflower PCS - The Riverseed School,,DC Wildflower PCS - The Riverseed School,515,515,5th-6th,38.900234,-76.920763,,,Ward 7,20019,82195,406873.27,136934.26,,{055D8F3B-7EF7-40B8-826A-70EF82D466A2},JLAY,2023/11/21 16:46:25+00,JLAY,2023/06/29 14:34:18+00
-76.9880511195187,38.8566297626228,1654,KIPP DC - Discover Academy PCS,2600 DOUGLASS ROAD SE,Susan Schaeffler,202-678-7735,,PK3-KG,0,chrt_55,https://www.kippdc.org/schools/early-childhood-schools/kipp-dc-discover-academy/,0,Y,2023-2024,KIPP DC - Discover Academy PCS,129,KIPP DC - Discover Academy PCS,1122,1122,PK3-KG,38.85662232,-76.98804884,DGS_0431.0,Cluster 37,Ward 8,20020,311456,401037.32,132090.08,,{51A83A90-3A98-488C-BD79-8656062C016A},JLAY,2023/08/23 18:04:14+00,JLAY,2023/06/29 14:34:18+00
-77.0181196265484,38.9098938468423,1655,KIPP DC - Grow Academy PCS,421 P STREET NW,Susan Schaeffler,202-986-4769,,PK3-KG,0,chrt_56,https://www.kippdc.org/schools/early-childhood-schools/kipp-dc-grow-academy/,0,Y,2023-2024,KIPP DC - Grow Academy PCS,129,KIPP DC - Grow Academy PCS,1129,1129,PK3-KG,38.90988639,-77.01811734,DGS_0778.0,Cluster 7,Ward 2,20001,294487,398428.65,138002.89,,{C3BF68FE-3431-40ED-A130-18567C2BBCE5},JLAY,2023/08/23 18:04:14+00,JLAY,2023/06/29 14:34:18+00
-76.9463488999279,38.8975572524338,1656,Global Citizens PCS,4095 MINNESOTA AVENUE NE,Natalie Smith,240-230-7228,,PK3-K,0,chrt_166,https://www.globalcitizensschool.org/,0,Y,2023-2024,Global Citizens PCS,357,Global Citizens PCS,0,,PK3-K,38.89755,-76.946347,,,Ward 7,20019,288100,404654.26,136634.64,,{85F9A422-B952-4E53-BC73-3A72D7116D95},JLAY,2023/08/23 18:04:14+00,JLAY,2023/06/29 14:34:18+00
-77.0148427941474,38.8353502253847,1657,LEARN DC PCS,100 DUNCAN AVENUE SW,Andrea Groeninger,(202) 949–0930,,PK3-2nd,0,chrt_167,https://www.learncharter.org/schools/learndc/,0,Y,2023-2024,LEARN DC PCS,358,LEARN DC PCS,0,,PK3-2nd,38.83534245,-77.01484051,,,Ward 8,20032,334655,398711.51,129727.94,,{BE1A6060-D9B6-41FD-8629-F423BD5A15E0},JLAY,2023/08/23 18:08:13+00,JLAY,2023/06/29 14:34:18+00
-76.9785977940712,38.9368039428759,1658,Sojourner Truth PCS,1800 PERRY STREET NE,Justin Lessek,202-747-0904,,6th-9th,,chrt_165,https://thetruthschool.org/,,Y,2023-2024,The Sojourner Truth School PCS,323,The Sojourner Truth School PCS,1144,1144,6th-9th,38.936796,-76.978596,DGS_0780.0,Cluster 22,Ward 5,20018,294529,401855.75,140990.2,,{B6587950-42A3-44EA-B145-004EB78B89E8},JLAY,2023/08/23 18:04:14+00,JLAY,2023/06/29 14:34:18+00
-76.9952899348945,38.9250219208618,1659,Washington Latin PCS - 2nd Campus,711 EDGEWOOD STREET NE,,202-223-1111,,5th-6th,,chrt_168,https://latinpcs.org/about/welcome/,,Y,2023-2024,Washington Latin PCS - 2nd Campus,151,Washington Latin PCS - 2nd Campus,466,466,5th-6th,38.925014,-76.995288,,,Ward 5,20017,289578,400408.61,139682.1,,{29533E77-4DD9-4390-807E-B37790FA2C1A},JLAY,2023/08/23 18:04:14+00,JLAY,2023/06/29 14:34:18+00
-76.9343965324269,38.8826349887968,1660,KIPP DC - LEAP Academy PCS,4801 BENNING ROAD SE,Susan Schaeffler,202-582-5327,,PK3-PK4,0,chrt_60,https://www.kippdc.org/school/kipp-dc-leap-academy/,0,Y,2023-2024,KIPP DC - LEAP Academy PCS,129,KIPP DC - LEAP Academy PCS,132,132,PK3-PK4,38.88262754,-76.93439427,PCSB_68BLD,Cluster 33,Ward 7,20019,17421,405692.28,134978.83,,{7A97F586-BC06-4BB0-B9DF-1E1E2B109F0C},JLAY,2023/08/23 18:04:14+00,JLAY,2023/06/29 14:34:18+00
-76.9811382902855,38.9080814310359,1661,KIPP DC - Northeast Academy PCS,1375 MOUNT OLIVET ROAD NE,John Barnhardt,202-398-5477,,5th-8th,0,chrt_122,https://www.kippdc.org/school/kipp-dc-northeast-academy/,0,Y,2023-2024,KIPP DC - Northeast Academy PCS,129,KIPP DC - Northeast Academy PCS,242,242,5th-8th,38.90807397,-76.98113601,DGS_0291.0,Cluster 23,Ward 5,20002,286108,401636.15,137801.71,,{DE969F32-F39E-42C8-A0E4-BF965A0F09FE},JLAY,2023/08/23 18:04:14+00,JLAY,2023/06/29 14:34:18+00
-76.9343965324269,38.8826349887968,1662,KIPP DC - Promise Academy PCS,4801 BENNING ROAD SE,Susan Schaeffler,202-582-1390,,KG-4th,0,chrt_61,https://www.kippdc.org/school/kipp-dc-promise-academy/,0,Y,2023-2024,KIPP DC - Promise Academy PCS,129,KIPP DC - Promise Academy PCS,1121,1121,KG-4th,38.88262754,-76.93439427,PCSB_68BLD,Cluster 33,Ward 7,20019,17421,405692.28,134978.83,,{5C93D465-DCDC-496B-BFE4-EC8DCA863682},JLAY,2023/08/23 18:04:14+00,JLAY,2023/06/29 14:34:18+00
-76.924647156072,38.8919556656053,1663,KIPP DC - Quest Academy PCS,5300 BLAINE STREET NE,Cherese Brauer,202-398-6811,,1st-4th,0,chrt_123,https://www.kippdc.org/school/kipp-dc-quest-academy/,0,Y,2023-2024,KIPP DC - Quest Academy PCS,129,KIPP DC - Quest Academy PCS,237,237,1st-4th,38.89194821,-76.9246449,DGS_0791.0,Cluster 31,Ward 7,20019,304054,406537.33,136014.15,,{1FE572F4-1D06-467B-A517-780DBFFC690A},JLAY,2023/08/23 18:04:14+00,JLAY,2023/06/29 14:34:18+00
-76.9811382902855,38.9080814310359,1664,KIPP DC - Spring Academy PCS,1375 MOUNT OLIVET ROAD NE, Donny Tiengtum,202-397-5477,,1st-4th,0,chrt_64,https://www.kippdc.org/school/kipp-dc-spring-academy/,0,Y,2023-2024,KIPP DC - Spring Academy PCS,129,KIPP DC - Spring Academy PCS,214,214,1st-4th,38.90807397,-76.98113601,DGS_0291.0,Cluster 23,Ward 5,20002,286108,401636.15,137801.71,,{FBB33F98-4073-49B6-A92F-4CD00A9211D5},JLAY,2023/08/23 18:04:14+00,JLAY,2023/06/29 14:34:18+00
-76.924647156072,38.8919556656053,1665,KIPP DC - Valor Academy PCS,5300 BLAINE STREET NE,Susan Schaeffler,202-398-6811,,5th-8th,0,chrt_130,https://www.kippdc.org/school/kipp-dc-valor-academy/,0,Y,2023-2024,KIPP DC - Valor Academy PCS,129,KIPP DC - Valor Academy PCS,243,243,5th-8th,38.89194821,-76.9246449,DGS_0791.0,Cluster 31,Ward 7,20019,304054,406537.33,136014.15,,{98C67598-7C24-4848-A1D1-138276125379},JLAY,2023/08/23 18:04:14+00,JLAY,2023/06/29 14:34:18+00
-77.0181196265484,38.9098938468423,1666,KIPP DC - WILL Academy PCS,421 P STREET NW,Susan Schaeffler,202-328-9455,,5th-8th,0,chrt_62,https://www.kippdc.org/school/kipp-dc-will-academy/,0,Y,2023-2024,KIPP DC - WILL Academy PCS,129,KIPP DC - WILL Academy PCS,121,121,5th-8th,38.90988639,-77.01811734,DGS_0778.0,Cluster 7,Ward 2,20001,294487,398428.65,138002.89,,{BE39A73F-74F8-49B7-932F-3C407ACA0673},JLAY,2023/08/23 18:04:14+00,JLAY,2023/06/29 14:34:18+00
-77.0340657957487,38.9509817561838,1667,Latin American Montessori Bilingual PCS - 14th Street,5000 14TH STREET NW,Diane  Cottman,202-829-2600,,PK3-5th,0,chrt_148,https://www.lambpcs.org/,0,Y,2023-2024,Latin American Montessori Bilingual PCS - Kingsbury,130,Latin American Montessori Bilingual PCS - Kingsbury,193,193,PK3-5th,38.950974,-77.034064,PCSB_132BLD,Cluster 17,Ward 4,20011,255780,397047.31,142564.4,,{E122E6D1-ABDF-4E2E-A6F1-2729ABC7AAC1},JLAY,2023/08/23 18:04:14+00,JLAY,2023/06/29 14:34:18+00
-77.0099356060576,38.9649273310508,1668,Friendship PCS - Ideal Elementary,6130 NORTH CAPITOL STREET NW,"George H. Rutherford II, Ph.D.",202- 729-6660,,PK3-3rd,0,chrt_121,https://www.myschooldc.org/schools/profile/189,0,Y,2023-2024,Friendship PCS - Ideal Elementary,127,Friendship PCS - Ideal Elementary,1083,1083,PK3-3rd,38.96491986,-77.00993332,PCSB_60BLD,Cluster 19,Ward 4,20011,285311,399139.13,144111.98,,{0852E43D-F252-4BFE-B646-AF1BC29C1ECD},JLAY,2023/08/23 18:04:14+00,JLAY,2023/06/29 14:34:18+00
-77.0132281586019,38.9089060264101,1669,Friendship PCS - Armstrong Middle,111 O STREET NW,Brenda Bethea,202-518-3928,,4th-8th,0,chrt_157,https://www.myschooldc.org/schools/profile/431,0,Y,2023-2024,Friendship PCS - Armstrong Middle,120,Friendship PCS - Armstrong Middle,269,269,4th-8th,38.908898,-77.013226,DGS_0793.0,Cluster 21,Ward 5,20001,316309,398852.88,137893.16,,{BD261CFC-EAB4-413C-9444-72443FF2CEE9},JLAY,2023/08/23 18:04:14+00,JLAY,2023/06/29 14:34:18+00
-77.0368122974879,38.9313208932356,1670,LAYC Career Academy PCS,3220 16TH STREET NW,Lori Kaplan,202-319-2228,,Adult,0,chrt_36,https://laycca.org/,0,N,2023-2024,LAYC Career Academy PCS,172,LAYC Career Academy PCS,104,104,Adult,38.93131343,-77.03681,PCSB_124BLD,Cluster 2,Ward 1,20010,301528,396808.36,140381.96,,{6D868204-5B88-49B3-A930-5D868C5391C2},JLAY,2023/08/23 18:04:14+00,JLAY,2023/06/29 14:34:18+00
-76.9889171146132,38.9386061353683,1671,Shining Stars Montessori Academy PCS,1240 RANDOLPH STREET NE,Ayize Sabater,202-319-2307,,PK3-6th,0,chrt_89,https://www.shiningstarspcs.org/,0,Y,2023-2024,Shining Stars Montessori Academy PCS,166,Shining Stars Montessori Academy PCS,3066,3066,PK3-6th,38.93859867,-76.98891483,PCSB_130BLD,Cluster 20,Ward 5,20017,69931,400961.05,141190.1,,{5A82BB83-CD7D-4E8E-850E-89DDAEC21EF5},JLAY,2023/08/23 18:04:14+00,JLAY,2023/06/29 14:34:18+00
-77.0411780603347,38.8981062383443,1672,Goodwill Excel Center PCS,1776 G STREET NW,,202-839-3650,,9th-12th,0,chrt_147,https://www.goodwillexcelcenter.org/,0,N,2023-2024,Goodwill Excel Center PCS,190,Goodwill Excel Center PCS,297,297,9th-12th,38.89809879,-77.04117576,PCSB_126BLD,Cluster 5,Ward 2,20006,218480,396428.16,136695.02,,{7DCF0448-0AF7-4AB3-9760-5FC9395A4477},JLAY,2023/08/23 18:04:14+00,JLAY,2023/06/29 14:34:18+00
-77.0066751494186,38.916017759255,1673,Harmony DC PCS - School of Excellence,62 T STREET NE,,202-529-7500,,PK3-5th,0,chrt_43,https://harmonydc.org/,0,Y,2023-2024,Harmony DC PCS - School of Excellence,180,Harmony DC PCS - School of Excellence,245,245,PK3-5th,38.9160103,-77.00667286,PCSB_107BLD,Cluster 21,Ward 5,20002,299982,399421.3,138682.56,,{797CC4BB-A770-4847-8FC0-DE4C1D5F9EF8},JLAY,2023/08/23 18:04:14+00,JLAY,2023/06/29 14:34:18+00
-77.0188112277782,38.8842276530854,1674,Richard Wright PCS for Journalism and Media Arts,475 SCHOOL STREET SW,"Marco Clark, Ph.D.",202-388-1011,,8th-12th,0,chrt_77,https://www.richardwrightpcs.org/ns2015/,0,Y,2023-2024,Richard Wright PCS for Journalism and Media Arts,167,Richard Wright PCS for Journalism and Media Arts,3067,3067,8th-12th,38.88422,-77.018809,PCSB_82BLD,Cluster 27,Ward 6,20024,17539,398368.08,135153.75,,{252AB76F-1400-4EAF-B363-673231BE2034},JLAY,2023/08/23 18:04:14+00,JLAY,2023/06/29 14:34:18+00
-76.9941028353089,38.8415266763965,1675,KIPP DC - Somerset College Preparatory PCS,3301 WHEELER ROAD SE,Lauren Catalano,202-562-9170,,9th-12th,0,chrt_90,https://www.kippdc.org/schools/high-school/kipp-dc-legacy-college-prep/,0,Y,2023-2024,KIPP DC - Somerset College Preparatory PCS,175,KIPP DC - Somerset College Preparatory PCS,1086,1086,9th-12th,38.84151923,-76.99410056,DGS_0508.0,Cluster 39,Ward 8,20032,294563,400512.16,130413.48,,{7F2B0E65-C67D-4FF6-B833-023DD15FA29B},JLAY,2023/08/23 18:04:14+00,JLAY,2023/06/29 14:34:18+00
-76.9766771971998,38.8872242805336,1676,St. Coletta Special Education PCS,1901 INDEPENDENCE AVENUE SE,,202-350-8680,,SPED,0,chrt_93,https://www.stcoletta.org/,0,N,2023-2024,St. Coletta Special Education PCS,143,St. Coletta Special Education PCS,1047,1047,SPED,38.88721683,-76.97667492,PCSB_88BLD,Cluster 26,Ward 7,20003,302511,402023.67,135486.49,,{5642CA1A-010C-4688-BD8A-BCCBF6070FBC},JLAY,2023/08/23 18:04:14+00,JLAY,2023/06/29 14:34:18+00
-77.0030891190846,38.8239113662993,1677,Statesmen College Preparatory Academy for Boys PCS,4600 LIVINGSTON ROAD SE,Shawn Hardnett,202-505-9072,,4th-8th,0,chrt_142,https://www.statesmenboys.org/,0,Y,2023-2024,Statesmen College Preparatory Academy for Boys PCS,314,Statesmen College Preparatory Academy for Boys PCS,1037,1037,4th-8th,38.823904,-77.003087,PCSB_135BLD,Cluster 32,Ward 8,20032,294600,399731.95,128458.05,,{96540C22-7D48-494E-B4A0-96DC513B3DAF},JLAY,2023/08/23 18:04:14+00,JLAY,2023/06/29 14:34:18+00
-76.9721810551069,38.9207046462304,1678,The Children's Guild DC Public Charter School,2146 24TH PLACE NE,,202-774-5442,,KG-8th,0,chrt_126,https://tcgdc.org/,0,Y,2023-2024,The Children's Guild DC PCS,188,The Children's Guild DC PCS,255,255,KG-8th,38.92069719,-76.97217878,PCSB_108BLD,Cluster 22,Ward 5,20018,51191,402412.62,139203.19,,{2FD6C10D-6D1C-49B4-A65C-F40A40E869BE},JLAY,2023/08/23 18:04:14+00,JLAY,2023/06/29 14:34:18+00
-76.9463488999279,38.8975572524338,1679,Friendship PCS - Collegiate Academy Online,4095 MINNESOTA AVENUE NE,Kimberly Campbell,202-396-5500,,9th-12th,0,chrt_27,https://www.friendshipschools.org/schools/collegiate/,0,Y,2023-2024,Friendship PCS - Collegiate Academy,120,Friendship PCS - Collegiate Academy,186,186,9th-12th,38.8975498,-76.94634663,DGS_0781.0,Cluster 30,Ward 7,20019,288100,404654.26,136634.64,,{6084A2B0-3FF2-4AA0-800F-196E6279886A},JLAY,2023/08/23 18:04:14+00,JLAY,2023/06/29 14:34:18+00
-76.9941028353089,38.8415266763965,1680,KIPP DC - Honor Academy PCS,3301 WHEELER ROAD SE,Gaelan Gallagher,202-562-9101,,5th-8th,0,chrt_158,https://www.kippdc.org/schools/middle-schools/kipp-dc-honor-academy/,0,Y,2023-2024,KIPP DC - Honor Academy PCS,129,KIPP DC - Honor Academy PCS,1085,1085,5th-8th,38.841519,-76.994101,,,Ward 8,20032,294563,400512.16,130413.48,,{C6B26AEF-2732-4550-9A0C-BBD70237BB0C},JLAY,2023/08/23 18:04:14+00,JLAY,2023/06/29 14:34:18+00
-77.0025951115615,38.9544222927169,1681,Rocketship PCS - Infinity Community Prep,5450 3RD STREET NE,,,,PK3-4th,0,chrt_159,https://www.rocketshipschools.org/schools/infinity-community-prep/,0,Y,2023-2024,Rocketship Fort Totten,191,Rocketship Fort Totten,0,,PK3-4th,38.954415,-77.002593,,,Ward 5,20011,150991,399775.26,142945.78,,{0ABA895C-A0EB-46A9-8C29-1E79C142F083},JLAY,2023/08/23 18:04:14+00,JLAY,2023/06/29 14:34:18+00
-76.9935845959439,38.9096056200246,1682,KIPP DC - College Preparatory PCS,1405 BRENTWOOD PARKWAY NE,Anthony Lewis,202-265-5477,,9th-12th,0,chrt_176,https://www.kippdc.org/schools/high-school/kipp-dc-college-preparatory/,0,Y,2023-2024,KIPP DC - College Preparatory PCS,,KIPP DC - College Preparatory PCS,0,,9th-12th,38.909598,-76.993582,,,Ward 5,20002,311606,400556.62,137970.76,,{3F78D0E8-C907-4972-9911-C2FA1DD8AFCB},JLAY,2023/08/23 18:04:14+00,JLAY,2023/06/29 14:34:18+00
-76.9402380203793,38.8700247427741,1683,Rocketship PCS - Legacy Prep,4250 MASSACHUSETTS AVENUE SE,Jacque Patterson,202-803-7004,,PK3-5th,0,chrt_138,https://www.rocketshipschools.org/schools/legacy-prep/,0,Y,2023-2024,Rocketship PCS - Legacy Prep,191,Rocketship PCS - Legacy Prep,1016,1016,PK3-5th,38.87001696,-76.94023576,PCSB_135BLD,Cluster 32,Ward 7,20019,278515,405186.36,133578.65,,{6085314E-A04F-49E7-BDAD-CFF2D0EDEFA6},JLAY,2023/08/23 18:04:14+00,JLAY,2023/06/29 14:34:18+00
-76.9745697774413,38.8558030633064,1684,Rocketship PCS - Rise Academy,2335 RAYNOLDS PLACE SE,Jacque Patterson,202-750-7177,,PK3-5th,0,chrt_133,https://www.rocketshipschools.org/schools/rise-academy/,0,Y,2023-2024,Rocketship PCS - Rise Academy,191,Rocketship PCS - Rise Academy,286,286,PK3-5th,38.85579528,-76.9745675,PCSB_127BLD,Cluster 36,Ward 8,20020,48301,402207.48,131998.55,,{29CA5777-06CA-4304-95E5-77A33346B891},JLAY,2023/08/23 18:04:14+00,JLAY,2023/06/29 14:34:18+00
-77.0103118709845,38.9568712142379,1685,Roots PCS,15 KENNEDY STREET NW,"Bernida Thompson, Ed.D.",202-882-8073,,PK3-5th,0,chrt_78,http://www.rootspcs.org/,0,Y,2023-2024,Roots PCS [Kennedy Street],140,Roots PCS [Kennedy Street],173,173,PK3-5th,38.95686375,-77.01030958,PCSB_83BLD,Cluster 17,Ward 4,20011,259404,399106.42,143217.68,,{1D32C0D9-7285-4AD2-B7FB-95BB5D1B44A6},JLAY,2023/08/23 18:04:14+00,JLAY,2023/06/29 14:34:18+00
-77.0094410006881,38.9662404143586,1686,Roots PCS,6222 NORTH CAPITOL STREET NW,"Bernida Thompson, Ed.D.",202-882-8073,,PK3-5th,0,chrt_86,http://www.rootspcs.org/,0,N,2023-2024,Roots PCS [North Capitol Street],140,Roots PCS [North Capitol Street],173,173,PK3-5th,38.96623295,-77.00943871,PCSB_116BLD,Cluster 19,Ward 4,20011,277484,399182.01,144257.74,,{036B5D8A-A001-404F-BB47-EC06BF225535},JLAY,2023/08/23 18:04:14+00,JLAY,2023/06/29 14:34:18+00
-76.9463053283056,38.8871376965063,1687,SEED Public Charter School of Washington DC,4300 C STREET SE,Charles Adams,202-248-7773,,9th-12th,0,chrt_87,https://www.seedschooldc.org/,0,Y,2023-2024,"SEED PCS of Washington, DC",405,"SEED PCS of Washington, DC",174,174,9th-12th,38.88713024,-76.94630306,DGS_0802.0,Cluster 32,Ward 7,20019,288154,404658.72,135477.99,,{B4B081A7-74B9-4721-814A-8449556E3977},JLAY,2023/08/23 18:04:14+00,JLAY,2023/06/29 14:34:18+00
-77.0360539439648,38.9319227044952,1688,The Family Place PCS,3309 16TH STREET NW,,202-265-0149,,Adult,0,chrt_152,https://www.thefamilyplacedc.org/,0,N,2023-2024,The Family Place PCS,303,The Family Place PCS,1036,1036,Adult,38.93191525,-77.03605165,PCSB_138BLD,Cluster 2,Ward 1,20010,234409,396874.14,140448.74,,{56A0F59C-616E-4215-B2AE-7F081B527998},JLAY,2023/08/23 18:04:14+00,JLAY,2023/06/29 14:34:18+00
-77.0358435949719,38.9285201499774,1689,The Next Step/ El Prόximo Paso PCS,3047 15TH STREET NW,Julie Meyer,202-319-2249,,Adult,0,chrt_97,https://www.nextsteppcs.org/,0,N,2023-2024,The Next Step/El Proximo Paso PCS,145,The Next Step/El Proximo Paso PCS,168,168,Adult,38.92851269,-77.0358413,PCSB_72BLD,Cluster 2,Ward 1,20009,243343,396892.23,140071.02,,{857FB328-AB93-40E9-8C5D-2AFA1CD6D7FC},JLAY,2023/08/23 18:04:14+00,JLAY,2023/06/29 14:34:18+00
-76.9936880533948,38.8622845205086,1690,Thurgood Marshall Academy PCS,2427 MARTIN LUTHER KING JR AVENUE SE,Alexandra Pardo,202-563-6862,,9th-12th,0,chrt_91,https://thurgoodmarshallacademy.org/,0,Y,2023-2024,Thurgood Marshall Academy PCS,146,Thurgood Marshall Academy PCS,191,191,9th-12th,38.86227707,-76.99368577,DGS_0805.0,Cluster 37,Ward 8,20020,278159,400548.01,132717.75,,{AB8774D6-99EF-48B4-8791-9DBF7D8A55DC},JLAY,2023/08/23 18:04:14+00,JLAY,2023/06/29 14:34:18+00
-77.0003019301427,38.9067610677614,1691,Two Rivers PCS at 4th Street,1227 4TH STREET NE,Jessica Wodatch,202-543-4477,,PK3-5th,0,chrt_80,https://www.tworiverspcs.org/,0,Y,2023-2024,Two Rivers PCS - 4th Street [Elementary],149,Two Rivers PCS - 4th Street [Elementary],198,198,PK3-5th,38.90675361,-77.00029965,PCSB_91BLD,Cluster 25,Ward 6,20002,306605,399974.01,137654.97,,{4FF59261-E48E-444B-90A9-9CCA052B6115},JLAY,2023/08/23 18:04:14+00,JLAY,2023/06/29 14:34:18+00
-76.9709620132635,38.9021163473845,1692,Two Rivers PCS at 4th Street,830 26TH STREET NE,Jessica Wodatch,202-543-8477,,6th-8th,0,chrt_153,https://www.tworiverspcs.org/,0,Y,2023-2024,Two Rivers PCS - 4th Street [Middle],149,Two Rivers PCS - 4th Street [Middle],198,198,6th-8th,38.902109,-76.97096,PCSB_104BLD,Cluster 25,Ward 5,20002,329215,402518.99,137139.77,,{8948B216-F332-4E5A-A1EF-BCF5651ECCB0},JLAY,2023/08/23 18:04:14+00,JLAY,2023/06/29 14:34:18+00
-77.0138213152642,38.953896412359,1693,Washington Latin PCS - Middle School,5200 2ND STREET NW,Martha Cutts,202-223-1111,,5th-8th,0,chrt_81,https://latinpcs.org/,0,Y,2023-2024,Washington Latin PCS - Middle School,151,Washington Latin PCS - Middle School,125,125,5th-8th,38.95388895,-77.01381902,DGS_0143.1,Cluster 18,Ward 4,20011,294608,398802.19,142887.49,,{9A754DE6-7355-4ED6-B257-362DBEAF9900},JLAY,2023/08/23 18:04:14+00,JLAY,2023/06/29 14:34:18+00
-77.0138213152642,38.953896412359,1694,Washington Latin PCS - Upper School,5200 2ND STREET NW,Martha Cutts,202-541-1591,,9th-12th,0,chrt_82,https://latinpcs.org/,0,Y,2023-2024,Washington Latin PCS - Upper School,151,Washington Latin PCS - Upper School,1118,1118,9th-12th,38.95388895,-77.01381902,DGS_0143.1,Cluster 18,Ward 4,20011,294608,398802.19,142887.49,,{31D6973D-E242-4ACC-8DC0-D71745AB123D},JLAY,2023/08/23 18:04:14+00,JLAY,2023/06/29 14:34:18+00
-76.9986721034696,38.9278723566732,1695,Washington Leadership Academy PCS,3015 4TH STREET NE,,240-580-3371,,9th-11th,0,chrt_136,https://www.washingtonleadershipacademy.org/,0,Y,2023-2024,Washington Leadership Academy PCS,192,Washington Leadership Academy PCS,283,283,9th-11th,38.9278649,-76.99866982,PCSB_128BLD,Cluster 21,Ward 5,20017,289740,400115.34,139998.5,,{BEFF4056-BF0B-4353-9DAD-333FCFBF2A76},JLAY,2023/11/21 16:46:25+00,JLAY,2023/06/29 14:34:18+00
-77.0036844453791,38.9412423391087,1696,Washington Yu Ying PCS,220 TAYLOR STREET NE,Maquita Alexander,202-635-1950,,PK3-5th,0,chrt_84,https://www.washingtonyuying.org/,0,Y,2023-2024,Washington Yu Ying PCS,160,Washington Yu Ying PCS,1117,1117,PK3-5th,38.94123488,-77.00368216,PCSB_95BLD,Cluster 19,Ward 5,20017,50738,399680.78,141482.69,,{128EFF76-0C16-4712-8663-A668547C9804},JLAY,2023/08/23 18:04:14+00,JLAY,2023/06/29 14:34:18+00
-77.0368122974879,38.9313208932356,1697,Youthbuild PCS,3220 16TH STREET NW,,202-319-0141,,Adult,0,chrt_139,https://www.youthbuildpcs.org/,0,N,2023-2024,YouthBuild PCS [16th Street],131,YouthBuild PCS [16th Street],128,128,Adult,38.93131343,-77.03681,PCSB_124BLD,Cluster 2,Ward 1,20010,301528,396808.36,140381.96,,{1A7F50FF-812D-4F06-93EA-6CC507A0EDB6},JLAY,2023/08/23 18:04:14+00,JLAY,2023/06/29 14:34:18+00
-76.9868045821557,38.8793924404911,1698,Friendship PCS - Chamberlain Elementary,1345 POTOMAC AVENUE SE,Kimberly Campbell,202-547-5800,,PK3-3rd,0,chrt_26,https://www.friendshipschools.org/schools/chamberlain/,0,Y,2023-2024,Friendship PCS - Chamberlain Elementary,120,Friendship PCS - Chamberlain Elementary,363,363,PK3-3rd,38.87938499,-76.9868023,PCSB_48BLD,Cluster 26,Ward 6,20003,66334,401145.15,134616.92,,{A06F458F-3DBB-4D2B-8078-5FBDAF5FFB74},JLAY,2023/08/23 18:04:14+00,JLAY,2023/06/29 14:34:18+00
-76.9868045821557,38.8793924404911,1699,Friendship PCS - Chamberlain Middle,1345 POTOMAC AVENUE SE,Kimberly Campbell,202-547-5800,,4th-8th,0,chrt_128,https://www.friendshipschools.org/schools/chamberlain/,0,Y,2023-2024,Friendship PCS - Chamberlain Middle,120,Friendship PCS - Chamberlain Middle,364,364,4th-8th,38.87938499,-76.9868023,PCSB_48BLD,Cluster 26,Ward 6,20003,66334,401145.15,134616.92,,{5689066F-317E-47A3-8991-5EEF26275F5E},JLAY,2023/08/23 18:04:14+00,JLAY,2023/06/29 14:34:18+00
-76.9463488999279,38.8975572524338,1700,Friendship PCS - Collegiate Academy,4095 MINNESOTA AVENUE NE,Kimberly Campbell,202-396-5500,,9th-12th,0,chrt_27,https://www.friendshipschools.org/schools/collegiate/,0,Y,2023-2024,Friendship PCS - Collegiate Academy,120,Friendship PCS - Collegiate Academy,186,186,9th-12th,38.8975498,-76.94634663,DGS_0781.0,Cluster 30,Ward 7,20019,288100,404654.26,136634.64,,{80D78FFB-0213-44CE-86DD-21E8E4EDD55C},JLAY,2023/08/23 18:04:14+00,JLAY,2023/06/29 14:34:18+00
-77.0315982527314,38.9605275454287,1701,Friendship PCS - Online,1351 NICHOLSON STREET NW,Tracy Slone,202-729-8287,,K-8th,0,chrt_32,https://www.friendshipschools.org/schools/online/,0,Y,2023-2024,Friendship PCS - Online Academy,120,Friendship PCS - Online,268,268,K-8th,38.96052008,-77.03159596,DGS_0804.0,Cluster 18,Ward 4,20011,257768,397261.57,143623.99,,{9F870FE3-D8C3-4B3B-8BDE-5BA66BB06B8A},JLAY,2023/08/23 18:04:14+00,JLAY,2023/06/29 14:34:18+00
-76.9970100213184,38.8477989171069,1702,Friendship PCS - Southeast Elementary Academy,645 MILWAUKEE PLACE SE,Kimberly Campbell,202-562-1980,,PK3-3rd,0,chrt_46,https://www.friendshipschools.org/schools/southeast/,0,Y,2023-2024,Friendship PCS - Southeast Elementary,120,Friendship PCS - Southeast Elementary,113,113,PK3-3rd,38.84779147,-76.99700774,PCSB_50BLD,Cluster 39,Ward 8,20032,1655,400259.75,131109.73,,{03C3F975-7621-4EFF-921D-013764892CA8},JLAY,2023/08/23 18:04:14+00,JLAY,2023/06/29 14:34:18+00
-76.9970100213184,38.8477989171069,1703,Friendship PCS - Southeast Middle Academy,645 MILWAUKEE PLACE SE,Kimberly Campbell,202-562-1980,,4th-8th,0,chrt_45,https://www.friendshipschools.org/schools/southeast-middle/,0,Y,2023-2024,Friendship PCS - Southeast Middle,120,Friendship PCS - Southeast Middle,1057,1057,4th-8th,38.84779147,-76.99700774,PCSB_50BLD,Cluster 39,Ward 8,20032,1655,400259.75,131109.73,,{3C15A8EC-E5C4-41D9-BD2F-B71C4AAD6802},JLAY,2023/08/23 18:04:14+00,JLAY,2023/06/29 14:34:18+00
-76.9961881741667,38.8483066088802,1704,Friendship PCS - Technology Preparatory High School Academy,2705 MARTIN LUTHER KING JR AVENUE SE,Kimberly Campbell,202-562-1681,,9th-12th,0,chrt_134,https://www.friendshipschools.org/schools/tech-prep-high/,0,Y,2023-2024,Friendship PCS - Technology Preparatory High ,120,Friendship PCS - Technology Preparatory High ,1164,1164,9th-12th,38.84829917,-76.99618589,PCSB_51BLD,Cluster 39,Ward 8,20032,289904,400331.09,131166.09,,{EEB23193-45C3-4F58-8AAD-EFA1EDE80ED5},JLAY,2023/08/23 18:04:14+00,JLAY,2023/06/29 14:34:18+00
-76.9988665189682,38.9280475794348,1705,Lee Montessori PCS - Brookland,3025 4TH STREET NE,Chris Pencikowski,202-779-9740,,PK3-6th,0,chrt_96,https://leemontessori.org/,0,Y,2023-2024,Lee Montessori PCS,177,Lee Montessori PCS,228,228,PK3-6th,38.92804,-76.998864,PCSB_128BLD,Cluster 21,Ward 5,20017,302681,400098.47,140017.95,,{B2210E50-7DC4-4D3E-B39F-C6C10A83A3CA},JLAY,2023/08/23 18:04:14+00,JLAY,2023/06/29 14:34:18+00
-77.0359242922605,38.9559238848941,1706,Mary McLeod Bethune Day Academy PCS - Northwest,5413 16TH STREET NW,Linda McKay,202-506-3620,,PK3-5th,0,chrt_150,https://www.mmbethune.org/apps/pages/index.jsp?uREC_ID=412646&type=d&pREC_ID=900609,0,Y,2023-2024,Mary McLeod Bethune Day Academy PCS - Northwest,132,Mary McLeod Bethune Day Academy PCS - Northwest,135,135,PK3-5th,38.95591642,-77.03592199,PCSB_113BLD,Cluster 18,Ward 4,20011,255870,396886.43,143113.08,,{56CA01DC-1362-49B9-9ACD-5F0202DD812D},JLAY,2023/11/17 19:34:45+00,JLAY,2023/06/29 14:34:18+00
-76.9785977940712,38.9368039428759,1707,Latin American Montessori Bilingual PCS - South Dakota Avenue,1800 PERRY STREET NE,Diane  Cottman,202-525-5105,,PK3-5th,0,chrt_149,https://www.lambpcs.org/,0,Y,2023-2024,Latin American Montessori Bilingual PCS - South Dakota Avenue,130,Latin American Montessori Bilingual PCS - South Dakota Avenue,193,193,PK3-5th,38.93679648,-76.97859551,DGS_0780.0,Cluster 22,Ward 5,20018,294529,401855.75,140990.2,,{62217C05-A346-479B-84A5-D426F7B1691C},JLAY,2023/08/23 18:04:14+00,JLAY,2023/06/29 14:34:18+00
-77.007366983924,38.9638822938077,1708,Sela PCS,6015 CHILLUM PLACE NE,,202-905-3012,,PK3-5th,0,chrt_88,https://www.selapcs.org/home,0,Y,2023-2024,Sela PCS,174,Sela PCS,197,197,PK3-5th,38.96387483,-77.00736469,PCSB_85BLD,Cluster 19,Ward 4,20011,288763,399361.73,143995.95,,{4190D218-CED3-41D4-81D1-9414796F09A2},JLAY,2023/08/23 18:04:14+00,JLAY,2023/06/29 14:34:18+00
-76.9958193894874,38.9236800075649,1709,Capital Village PCS,705 EDGEWOOD STREET NE,Monica Green,202-670-1516,,5th-8th,0,chrt_160,https://www.capitalvillageschools.org/,0,Y,2023-2024,Capital Village PCS,334,Capital Village PCS,0,,5th-8th,38.923672,-76.995817,,,Ward 5,20017,289576,400362.72,139533.12,,{47BDDF24-E9CA-4676-8071-DFDED1150F99},JLAY,2023/08/23 18:04:14+00,JLAY,2023/06/29 14:34:18+00
-76.9953568479405,38.8597695196626,1710,DC Prep PCS - Anacostia Middle,2501 MARTIN LUTHER KING JR AVENUE SE,,,,4th-6th,,chrt_161,https://www.dcprep.org/prospective-families/our-schools/anacostia-middle-campus/,,Y,2023-2024,DC Prep PCS - Anacostia Middle,115,DC Prep PCS - Anacostia Middle,0,0,4th-6th,38.859762,-76.995355,,Cluster 28,Ward 8,20020,278172,400403.19,132438.56,,{1F932F4A-27EA-4ED0-A3E8-B193E0113068},JLAY,2023/08/23 18:04:14+00,JLAY,2023/06/29 14:34:18+00
-77.0226017982059,38.8991933041015,1711,Girls Global Academy PCS,733 8TH STREET NW,Jason Mellen,202-996-0127,,9th-11th,0,chrt_162,https://girlsglobalacademy.org/,0,Y,2023-2024,Girls Global Academy PCS,340,Girls Global Academy PCS,0,,9th-11th,38.899186,-77.0226,,,Ward 2,20001,302138,398039.61,136815.13,,{5A914C96-E4A3-41FE-9D6F-B22B9D7B6D88},JLAY,2023/08/23 18:04:14+00,JLAY,2023/06/29 14:34:18+00
-76.9586212653167,38.8626070678582,1712,I Dream PCS,2220 BRANCH AVENUE SE,,202-922-7221,,PK3-4th,,chrt_163,https://www.idreampcs.org/,,Y,2023-2024,I Dream PCS,345,I Dream PCS,1147,1147,PK3-4th,38.8626,-76.958619,,,Ward 7,20020,50755,403591.43,132754.35,,{604E0C7B-215B-4BB0-A45F-7D6ED79BEA23},JLAY,2023/08/23 18:04:14+00,JLAY,2023/06/29 14:34:18+00
-77.0025951115615,38.9544222927169,1713,Social Justice PCS,5450 3RD STREET NE,Myron Long,202-714-8498,,5th-8th,,chrt_164,https://www.thesocialjusticeschool.org/,,Y,2023-2024,Social Justice PCS,350,Social Justice PCS,0,,5th-8th,38.954415,-77.002593,,,Ward 5,20011,150991,399775.26,142945.78,,{36783E74-7240-44F8-BC58-3E1F3D9EC497},JLAY,2023/08/23 18:04:14+00,JLAY,2023/06/29 14:34:18+00
-76.9868669097492,38.9296133838169,1714,Mary McLeod Bethune Day Academy PCS - Brookland,1404 JACKSON STREET NE,Linda McKay,202-459-4710,,PK3-8th,0,chrt_67,https://www.mmbethune.org/apps/pages/index.jsp?uREC_ID=412646&type=d&pREC_ID=904977,0,Y,2023-2024,Mary McLeod Bethune Day Academy PCS - Brookland,132,Mary McLeod Bethune Day Academy PCS - Brookland,135,135,PK3-8th,38.92960592,-76.98686463,DGS_0300.0,Cluster 22,Ward 5,20017,294522,401138.94,140191.85,,{A5A64569-285B-454B-A61F-997454B25300},JLAY,2023/11/17 19:34:45+00,JLAY,2023/06/29 14:34:18+00
-76.920637522764,38.8902988919495,1715,Maya Angelou PCS - High School,5600 EAST CAPITOL STREET NE,"Heather Wathington, Ph.D.",202-379-4335,,9th-12th,0,chrt_68,https://www.seeforever.org/,0,N,2023-2024,Maya Angelou PCS - High School,133,Maya Angelou PCS - High School,101,101,9th-12th,38.89029144,-76.92063526,DGS_0686.0,Cluster 33,Ward 7,20019,289793,406885.34,135830.53,,{059BD694-CF20-4BF3-AA6D-69EAC106C422},JLAY,2023/08/23 18:04:14+00,JLAY,2023/06/29 14:34:18+00
-76.920637522764,38.8902988919495,1716,Maya Angelou PCS - Young Adult Learning Center,5600 EAST CAPITOL STREET NE,Sarah Navarro,202-797-8250,,Adult,0,chrt_30,https://www.seeforever.org/,0,N,2023-2024,Maya Angelou PCS - Young Adult Learning Center,133,Maya Angelou PCS - Young Adult Learning Center,137,137,Adult,38.89029144,-76.92063526,DGS_0686.0,Cluster 33,Ward 7,20019,289793,406885.34,135830.53,,{A58B1814-D3F7-4E7A-A982-091BFA44950E},JLAY,2023/08/23 18:04:14+00,JLAY,2023/06/29 14:34:18+00
-77.025878043741,38.9296135982127,1717,Meridian Public Charter School - Middle School,770 KENYON STREET NW,Kimberly Moore,202-793-2667,,6th-8th,0,chrt_69,https://www.mpcs-dc.org/,0,Y,2023-2024,Meridian Public Charter School - Middle School,135,Meridian Public Charter School - Middle School,165,165,6th-8th,38.929606,-77.025876,PCSB_112BLD,Cluster 2,Ward 1,20010,285409,397756.37,140192.11,,{4EB3E046-ED42-410A-B002-8546098F1695},JLAY,2023/08/23 18:04:14+00,JLAY,2023/06/29 14:34:18+00
-76.9775594175162,38.896720630184,1718,Monument Academy PCS,500 19TH STREET NE,Denise Miles,202-545-3180,,5th-8th,0,chrt_151,https://monumentacademy.org/,0,Y,2023-2024,Monument Academy PCS,184,Monument Academy PCS,260,260,5th-8th,38.89671318,-76.97755714,DGS_0648.0,Cluster 25,Ward 7,20002,290080,401946.87,136540.64,,{4F8594D6-5B8B-4330-8901-D094938CFEF1},JLAY,2023/08/23 18:04:14+00,JLAY,2023/06/29 14:34:18+00
-77.0103128484089,38.9094124900774,1719,Mundo Verde Bilingual PCS - J.F. Cook Campus,30 P STREET NW,Kristin Scotchmer,202-750-7060,,PK3-5th,0,chrt_70,https://www.mundoverdepcs.org/,0,Y,2023-2024,Mundo Verde Bilingual PCS - J.F. Cook Campus,171,Mundo Verde Bilingual PCS - J.F. Cook Campus,3065,3065,PK3-5th,38.90940503,-77.01031056,DGS_0454.0,Cluster 21,Ward 5,20001,294465,399105.74,137949.35,,{45EDAFD7-92FF-40A7-AD12-B2F76D4EBD11},JLAY,2023/08/23 18:04:14+00,JLAY,2023/06/29 14:34:18+00
-77.0030891190846,38.8239113662993,1720,National Collegiate Preparatory Public Charter High School,4600 LIVINGSTON ROAD SE,Jennifer L. Ross,202-832-7737,,9th-12th,0,chrt_71,http://www.nationalprepdc.org/,0,Y,2023-2024,National Collegiate Preparatory PCHS,163,National Collegiate Preparatory PCHS,1120,1120,9th-12th,38.82390393,-77.00308684,DGS_0628.0,Cluster 39,Ward 8,20032,294600,399731.95,128458.05,,{D2DF6F54-3635-4C8A-AA93-B9B58E5FEEFD},JLAY,2023/08/23 18:04:14+00,JLAY,2023/06/29 14:34:18+00
-77.0247253678987,38.9613729142855,1721,Paul PCS - International High School,5800 8TH STREET NW,Jami Dunham,202-291-7495,,9th-12th,0,chrt_38,https://www.paulcharter.org/,0,Y,2023-2024,Paul PCS - International High School,138,Paul PCS - International High School,222,222,9th-12th,38.96136545,-77.02472307,DGS_0779.0,Cluster 17,Ward 4,20011,294613,397857.27,143717.65,,{A9A6F86E-42EF-42D9-9A27-7797299E7A08},JLAY,2023/08/23 18:04:14+00,JLAY,2023/06/29 14:34:18+00
-77.0247253678987,38.9613729142855,1722,Paul PCS - Middle School,5800 8TH STREET NW,Jami Dunham,202-291-7495,,6th-8th,0,chrt_74,https://www.paulcharter.org/,0,Y,2023-2024,Paul PCS - Middle School,138,Paul PCS - Middle School,170,170,6th-8th,38.96136545,-77.02472307,DGS_0779.0,Cluster 17,Ward 4,20011,294613,397857.27,143717.65,,{1EDCD703-A897-4835-925F-077F8EF159BA},JLAY,2023/08/23 18:04:14+00,JLAY,2023/06/29 14:34:18+00
-76.9665719808443,38.9295967298872,1723,Friendship PCS - Woodridge Elementary,2959 CARLTON AVENUE NE,Kimberly Campbell,202-635-6500,,PK3-3rd,0,chrt_48,https://www.friendshipschools.org/schools/woodridge/,0,Y,2023-2024,Friendship PCS - Woodridge International Elementary,120,Friendship PCS - Woodridge International Elementary,365,365,PK3-3rd,38.92958893,-76.96656971,DGS_0900.0,Cluster 24,Ward 5,20018,42808,402898.67,140190.45,,{D147F10A-9248-4FC0-94F8-CF2381BE3F2B},JLAY,2023/08/23 18:04:14+00,JLAY,2023/06/29 14:34:18+00
-76.9665719808443,38.9295967298872,1724,Friendship PCS - Woodridge Middle,2959 CARLTON AVENUE NE,Kimberly Campbell,202-635-6500,,4th-8th,0,chrt_129,https://www.friendshipschools.org/schools/woodridge/,0,Y,2023-2024,Friendship PCS - Woodridge International Middle,120,Friendship PCS - Woodridge International Middle,366,366,4th-8th,38.92958893,-76.96656971,DGS_0900.0,Cluster 24,Ward 5,20018,42808,402898.67,140190.45,,{D1465227-CAC7-49D4-AA6F-4C211534DD01},JLAY,2023/08/23 18:04:14+00,JLAY,2023/06/29 14:34:18+00
-76.9946185432413,38.9269582567461,1725,Hope Community PCS - Tolson,2917 8TH STREET NE,Michael DePass,202-832-7370,,PK3-8th,0,chrt_50,https://www.myschooldc.org/schools/profile/185,0,Y,2023-2024,Hope Community PCS - Tolson,121,Hope Community PCS - Tolson,114,114,PK3-8th,38.9269508,-76.99461626,PCSB_54BLD,Cluster 21,Ward 5,20017,43392,400466.83,139897.04,,{E33A3495-AD51-48D7-98E0-799E1D5CB264},JLAY,2023/08/23 18:04:14+00,JLAY,2023/06/29 14:34:18+00
-77.0191316130618,38.9228490205983,1726,Howard University Middle School of Mathematics and Science PCS,405 HOWARD PLACE NW,Yohance C. Maqubela,202-806-7725,,6th-8th,0,chrt_51,https://hu-ms2.org/,0,Y,2023-2024,Howard University Middle School of Mathematics and Science PCS,124,Howard University Middle School of Mathematics and Science PCS,115,115,6th-8th,38.92284156,-77.01912932,PCSB_59BLD,Cluster 3,Ward 1,20059,291490,398341.18,139441.04,,{FA35ED14-4C89-4D5E-AF8C-6ED254F48D6A},JLAY,2023/08/23 18:04:14+00,JLAY,2023/06/29 14:34:18+00
-76.9371058468481,38.904556372145,1727,IDEA PCS,1027 45TH STREET NE,John Goldman,202-399-4750,,9th-12th,0,chrt_52,https://www.ideapcs.org/,0,Y,2023-2024,IDEA PCS,126,IDEA PCS,163,163,9th-12th,38.90454891,-76.93710358,DGS_0799.0,Cluster 31,Ward 7,20019,75296,405455.53,137412.11,,{41B5B8B4-3742-4BF0-A314-B6FB8853661E},JLAY,2023/08/23 18:04:14+00,JLAY,2023/06/29 14:34:18+00
-77.0099356060576,38.9649273310508,1728,Friendship PCS - Ideal Middle,6130 NORTH CAPITOL STREET NW,"George H. Rutherford II, Ph.D.",202- 729-6660,,4th-8th,0,chrt_118,https://www.myschooldc.org/schools/profile/433,0,Y,2023-2024,Friendship PCS - Ideal Middle,127,Friendship PCS - Ideal Middle,1084,1084,4th-8th,38.96491986,-77.00993332,PCSB_60BLD,Cluster 19,Ward 4,20011,285311,399139.13,144111.98,,{9BAEAFC9-85E7-46D1-9516-2BF792024D8D},JLAY,2023/08/23 18:04:14+00,JLAY,2023/06/29 14:34:18+00
-77.0030891190846,38.8239113662993,1729,Ingenuity Prep PCS,4600 LIVINGSTON ROAD SE,,202-562-0391,,PK3-8th,0,chrt_1,https://www.ingenuityprep.org/,0,Y,2023-2024,Ingenuity Prep PCS,173,Ingenuity Prep PCS,200,200,PK3-8th,38.82390393,-77.00308684,DGS_0628.0,Cluster 39,Ward 8,20032,294600,399731.95,128458.05,,{D05A02F1-CF8B-4DD8-AEB7-4629AA221715},JLAY,2023/08/23 18:04:14+00,JLAY,2023/06/29 14:34:18+00
-77.0242456426602,38.9343290766629,1730,E.L. Haynes PCS - Middle School,3600 GEORGIA AVENUE NW,Jennie Niles,202-667-4446,,5th-8th,0,chrt_39,https://www.elhaynes.org/,0,Y,2023-2024,E.L. Haynes PCS - Middle School,116,E.L. Haynes PCS - Middle School,146,146,5th-8th,38.93432162,-77.02424335,PCSB_35BLD,Cluster 2,Ward 1,20010,306085,397898.05,140715.53,,{376D70E6-8828-43AB-BCE5-3A6EF9654560},JLAY,2023/08/23 18:04:14+00,JLAY,2023/06/29 14:34:18+00
-77.0099317352709,38.8666248745691,1731,Eagle Academy PCS - Capitol Riverfront,1900 HALF STREET SW,Cassandra S. Pinkney,202-459-6825,,PK3-3rd,0,chrt_19,https://www.eagleacademypcs.org/,0,Y,2023-2024,Eagle Academy PCS - Capitol Riverfront,117,Eagle Academy PCS - Capitol Riverfront,1125,1125,PK3-3rd,38.866617,-77.009929,PCSB_37BLD,Cluster 27,Ward 6,20536,277760,399138.28,133199.59,,{2D6C9B6D-6E72-4144-9A01-BC5C1BF17B2A},JLAY,2023/08/23 18:04:14+00,JLAY,2023/06/29 14:34:18+00
-76.9930397762244,38.8402765151396,1732,Eagle Academy PCS - Congress Heights,3400 WHEELER ROAD SE,Cassandra S. Pinkney,202-544-2646,,PK3-3rd,0,chrt_20,https://www.eagleacademypcs.org/,0,Y,2023-2024,Eagle Academy PCS - Congress Heights,117,Eagle Academy PCS - Congress Heights,195,195,PK3-3rd,38.84026907,-76.9930375,DGS_0517.0,Cluster 39,Ward 8,20032,294566,400604.46,130274.71,,{5A3EF4C8-159A-482A-850D-2A406CBA1D25},JLAY,2023/08/23 18:04:14+00,JLAY,2023/06/29 14:34:18+00
-76.9912312082518,38.8315984555889,1733,Early Childhood Academy PCS,885 BARNABY STREET SE,Wendy Edwards,202-373-0035,,PK3-3rd,0,chrt_21,https://www.ecapcs.org/,0,Y,2023-2024,Early Childhood Academy PCS [Facility A],118,Early Childhood Academy PCS [Facility A],138,138,PK3-3rd,38.831591,-76.991229,PCSB_39BLD,Cluster 39,Ward 8,20032,81585,400761.57,129311.4,,{20B8388E-BC4E-4986-B594-2C57A713AD17},JLAY,2023/08/23 18:04:14+00,JLAY,2023/06/29 14:34:18+00
-76.9896059487964,38.8310002502185,1734,Early Childhood Academy PCS [Facility B],4301 9TH STREET SE,Wendy Edwards,202-373-0035,,PK3-3rd,0,chrt_22,https://www.ecapcs.org/,0,N,2023-2024,Early Childhood Academy PCS [Facility B],118,Early Childhood Academy PCS [Facility B],138,138,PK3-3rd,38.83099281,-76.98960367,PCSB_40BLD,Cluster 39,Ward 8,20032,298086,400902.69,129245.01,,{95ED6BA5-6745-41B7-8A3F-045D0BFD2582},JLAY,2023/08/23 18:04:14+00,JLAY,2023/06/29 14:34:18+00
-76.9900896303581,38.9349973358515,1735,Elsie Whitlow Stokes Community Freedom PCS - Brookland,3700 OAKVIEW TERRACE NE,"Linda Moore, Ed.D.",202-265-7237,,PK3-5th,0,chrt_23,https://www.ewstokes.org/brookland-campus,0,Y,2023-2024,Elsie Whitlow Stokes Community Freedom PCS - Brookland,144,Elsie Whitlow Stokes Community Freedom PCS - Brookland,159,159,PK3-5th,38.93498987,-76.99008735,PCSB_44BLD,Cluster 20,Ward 5,20017,289754,400859.44,140789.48,,{76D291B4-749D-4642-B47F-28E6162A18C1},JLAY,2023/08/23 18:04:14+00,JLAY,2023/06/29 14:34:18+00
-76.920637522764,38.8902988919495,1736,Elsie Whitlow Stokes Community Freedom PCS - East End,5600 EAST CAPITOL STREET NE,"Linda Moore, Ed.D.",202-975-2100,,PK3-4th,0,chrt_140,https://www.ewstokes.org/east-end-campus,0,Y,2023-2024,Elsie Whitlow Stokes Community Freedom PCS - East End,144,Elsie Whitlow Stokes Community Freedom PCS - East End,1059,1059,PK3-4th,38.89029144,-76.92063526,DGS_0686.0,Cluster 33,Ward 7,20019,289793,406885.34,135830.53,,{C43C5F12-2490-47CA-BDE3-9E518870172B},JLAY,2023/08/23 18:04:14+00,JLAY,2023/06/29 14:34:18+00
-77.0132281586019,38.9089060264101,1737,Friendship PCS - Armstrong Elementary,111 O STREET NW,Brenda Bethea,202-518-3928,,PK3-3rd,0,chrt_6,https://www.friendshipschools.org/schools/armstrong/,0,Y,2023-2024,Friendship PCS - Armstrong Elementary,120,Friendship PCS - Armstrong Elementary,269,269,PK3-3rd,38.908898,-77.013226,DGS_0793.0,Cluster 21,Ward 5,20001,316309,398852.88,137893.16,,{DFFF35AF-1A86-40CA-AD49-B5CA45C3EBD4},JLAY,2023/08/23 18:04:14+00,JLAY,2023/06/29 14:34:18+00
-76.9764835213362,38.8978279069618,1738,Friendship PCS - Blow-Pierce Elementary,725 19TH STREET NE,Kimberly Campbell,202-572-1070,,PK3-3rd,0,chrt_25,https://www.friendshipschools.org/schools/blow-pierce/,0,Y,2023-2024,Friendship PCS - Blow Pierce Elementary,120,Friendship PCS - Blow Pierce Elementary,361,361,PK3-3rd,38.89782045,-76.97648125,DGS_0795.0,Cluster 25,Ward 7,20002,288919,402040.17,136663.58,,{1BE57B4E-AA00-46CB-94D4-CE57B20AF0E7},JLAY,2023/08/23 18:04:14+00,JLAY,2023/06/29 14:34:18+00
-76.9764835213362,38.8978279069618,1739,Friendship PCS - Blow-Pierce Middle,725 19TH STREET NE,Kimberly Campbell,202-572-1070,,4th-8th,0,chrt_132,https://www.friendshipschools.org/schools/blow-pierce/,0,Y,2023-2024,Friendship PCS - Blow-Pierce Middle,120,Friendship PCS - Blow-Pierce Middle,362,362,4th-8th,38.89782045,-76.97648125,DGS_0795.0,Cluster 25,Ward 7,20002,288919,402040.17,136663.58,,{29829DAF-4917-4FFB-A13B-570242E0BD69},JLAY,2023/08/23 18:04:14+00,JLAY,2023/06/29 14:34:18+00
-76.9945342121761,38.9429782300782,1740,Mundo Verde Bilingual PCS - Calle Ocho Campus,4401 8TH STREET NE,Kristin Scotchmer,202-750-7060,,PK3–3rd,0,chrt_155,https://www.mundoverdepcs.org/,0,Y,2023-2024,Mundo Verde Bilingual PCS - Calle Ocho Campus,171,Mundo Verde Bilingual PCS - Calle Ocho Campus,1088,1088,PK3–3rd,38.942971,-76.994532,,,Ward 5,20017,22543,400474.03,141675.39,,{532843A9-BD4E-4DEB-A6E5-5D49F608433B},JLAY,2023/08/23 18:04:14+00,JLAY,2023/06/29 14:34:18+00
-76.9880511195187,38.8566297626228,1741,KIPP DC - Heights Academy PCS,2600 DOUGLASS ROAD SE,Susan Schaeffler,202-610-5323,,1st-4th,0,chrt_57,https://www.kippdc.org/schools/elementary-schools/kipp-dc-heights-academy/,0,Y,2023-2024,KIPP DC - Heights Academy PCS,129,KIPP DC - Heights Academy PCS,3071,3071,1st-4th,38.85662232,-76.98804884,DGS_0431.0,Cluster 37,Ward 8,20020,311456,401037.32,132090.08,,{B6AB79DE-ADEF-4A83-BA90-CF6BAFE9D341},JLAY,2023/08/23 18:04:14+00,JLAY,2023/06/29 14:34:18+00
-76.9343965324269,38.8826349887968,1742,KIPP DC - KEY Academy PCS,4801 BENNING ROAD SE,Susan Schaeffler,202-582-5477,,5th-8th,0,chrt_58,https://www.kippdc.org/school/kipp-dc-key-academy/,0,Y,2023-2024,KIPP DC - KEY Academy PCS,129,KIPP DC - KEY Academy PCS,189,189,5th-8th,38.88262754,-76.93439427,PCSB_68BLD,Cluster 33,Ward 7,20019,17421,405692.28,134978.83,,{FD7A316B-2505-4F3F-BDD9-426C0F0680DF},JLAY,2023/08/23 18:04:14+00,JLAY,2023/06/29 14:34:18+00
-77.0181196265484,38.9098938468423,1743,KIPP DC - Lead Academy PCS,421 P STREET NW,Susan Schaeffler,202-469-3300,,1st-4th,0,chrt_59,https://www.kippdc.org/school/kipp-dc-lead-academy/,0,Y,2023-2024,KIPP DC - Lead Academy PCS,129,KIPP DC - Lead Academy PCS,190,190,1st-4th,38.90988639,-77.01811734,DGS_0778.0,Cluster 7,Ward 2,20001,294487,398428.65,138002.89,,{1AB0599F-7681-402A-B649-FE9DD5792DDD},JLAY,2023/08/23 18:04:14+00,JLAY,2023/06/29 14:34:18+00
-77.0074813282888,38.9528699571774,1744,Briya PCS [Gallatin Street/Fort Totten],100 GALLATIN STREET NE,,202-232-7777,,"PK3-PK4; Adult",0,chrt_154,https://www.briya.org/,0,N,2023-2024,Briya PCS [Gallatin Street/Fort Totten],119,Briya PCS [Gallatin Street/Fort Totten],126,126,"PK3-PK4; Adult",38.95286249,-77.00747904,DGS_0191.0,Cluster 19,Ward 5,20011,294470,399351.72,142773.48,,{5B5474FE-CE36-4351-811D-A42798AB52D6},JLAY,2023/08/23 18:04:14+00,JLAY,2023/06/29 14:34:18+00
-77.0251122941584,38.9392572441811,1745,Briya PCS [Georgia Avenue/Petworth],3912 GEORGIA AVENUE NW,,202-545-2020,,"PK3-PK4; Adult",0,chrt_42,https://www.briya.org/,0,N,2023-2024,Briya PCS [Georgia Avenue/Petworth],119,Briya PCS [Georgia Avenue/Petworth],126,126,"PK3-PK4; Adult",38.93924978,-77.02511,PCSB_43BLD,Cluster 18,Ward 4,20011,224825,397823.06,141262.62,,{732437AA-00CA-401A-8909-FD0FD9DDD507},JLAY,2023/08/23 18:04:14+00,JLAY,2023/06/29 14:34:18+00
-77.0398084009067,38.9209801636915,1746,Briya PCS [Ontario Road/Adams Morgan],2333 ONTARIO ROAD NW,,202-420-7200,,"PK3-PK4; Adult",0,chrt_40,https://www.briya.org/,0,N,2023-2024,Briya PCS [Ontario Road/Adams Morgan],119,Briya PCS [Ontario Road/Adams Morgan],126,126,"PK3-PK4; Adult",38.92097271,-77.0398061,PCSB_41BLD,Cluster 1,Ward 1,20009,284370,396548.08,139234.16,,{5823B224-51E2-4952-8588-A264DDE84B7B},JLAY,2023/08/23 18:04:14+00,JLAY,2023/06/29 14:34:18+00
-77.0128697454397,38.9621723213198,1747,Capital City PCS - High School,100 PEABODY STREET NW,Karen Dresden,202-808-9800,,9th-12th,0,chrt_109,https://www.ccpcs.org/,0,Y,2023-2024,Capital City PCS - High School,108,Capital City PCS - High School,1207,1207,9th-12th,38.96216486,-77.01286745,DGS_0773.0,Cluster 17,Ward 4,20011,277545,398884.8,143806.18,,{EAB33AE9-A6AE-48E0-93C4-E499414F99CA},JLAY,2023/08/23 18:04:14+00,JLAY,2023/06/29 14:34:18+00
-77.0128697454397,38.9621723213198,1748,Capital City PCS - Lower School,100 PEABODY STREET NW,Karen Dresden,202-808-9800,,PK3-4th,0,chrt_108,https://www.ccpcs.org/,0,Y,2023-2024,Capital City PCS - Lower School,108,Capital City PCS - Lower School,184,184,PK3-4th,38.96216486,-77.01286745,DGS_0773.0,Cluster 17,Ward 4,20011,277545,398884.8,143806.18,,{43F9327B-264A-4B98-85E5-3EC4F1AD1108},JLAY,2023/08/23 18:04:14+00,JLAY,2023/06/29 14:34:18+00
-77.0128697454397,38.9621723213198,1749,Capital City PCS - Middle School,100 PEABODY STREET NW,Karen Dresden,202-808-9800,,5th-8th,0,chrt_110,https://www.ccpcs.org/,0,Y,2023-2024,Capital City PCS - Middle School,108,Capital City PCS - Middle School,182,182,5th-8th,38.96216486,-77.01286745,DGS_0773.0,Cluster 17,Ward 4,20011,277545,398884.8,143806.18,,{D3F117D5-4D54-40A9-B8D3-0D986B8256A2},JLAY,2023/08/23 18:04:14+00,JLAY,2023/06/29 14:34:18+00
-77.0275598258636,38.9264712938133,1750,Carlos Rosario International PCS [Harvard Street],1100 HARVARD STREET NW,Ryan Monroe,202-797-4700,,Adult,0,chrt_34,https://www.carlosrosario.org/on-campus/harvard-street-campus/,0,N,2023-2024,Carlos Rosario International PCS [Harvard Street],162,Carlos Rosario International PCS [Harvard Street],1119,1119,Adult,38.92646384,-77.02755753,PCSB_14BLD,Cluster 2,Ward 1,20009,300733,397610.44,139843.33,,{CC02BF9D-B89F-4E42-9EC2-87CFA176B86B},JLAY,2023/08/23 18:04:14+00,JLAY,2023/06/29 14:34:18+00
-76.9988145756413,38.9183131770018,1751,Carlos Rosario International PCS [Sonia Gutierrez],514 V STREET NE,Jorge Delgado,202-734-4900,,Adult,0,chrt_37,https://www.carlosrosario.org/on-campus/sonia-gutierrez-campus/,0,N,2023-2024,Carlos Rosario International PCS [Sonia Gutierrez],162,Carlos Rosario International PCS [Sonia Gutierrez],1119,1119,Adult,38.91830572,-76.99881229,PCSB_106BLD,Cluster 21,Ward 5,20002,156315,400103,138937.35,,{79183580-EF8C-4897-8B74-07553A14B0DF},JLAY,2023/08/23 18:04:14+00,JLAY,2023/06/29 14:34:18+00
-76.9912044636406,38.905306609296,1752,"Center City PCS - Trinidad/NOMA
",1217 WEST VIRGINIA AVENUE NE,Russ Williams,202-397-1614,,PK3-8th,0,chrt_117,https://centercitypcs.org/campuses/noma/,0,Y,2023-2024,Center City PCS - Trinidad,156,Center City PCS - Trinidad,1108,1108,PK3-8th,38.90529915,-76.99120218,PCSB_20BLD,Cluster 23,Ward 5,20002,285938,400763.1,137493.55,,{AF1FA500-2C3A-4FE7-A64A-26985019061F},JLAY,2023/08/23 18:04:14+00,JLAY,2023/06/29 14:34:18+00
-77.0971724352201,38.9457085844412,1753,AppleTree Early Learning PCS - Spring Valley,"4900 MASSACHUSETTS AVENUE NW
",,,,PK3-PK4,,chrt_177,https://www.appletreeinstitute.org/,,Y,2023-2024,AppleTree Early Learning PCS - Spring Valley,103,AppleTree Early Learning PCS - Spring Valley,503,503,PK3-PK4,38.94570112,-77.09717012,,,Ward 3,20016,269772,391576.49,141982.96,,{7B4108C2-12C0-453C-880F-06F684096CDE},JLAY,2023/11/21 16:46:25+00,JLAY,2023/06/29 14:34:18+00
-77.0170877711273,38.8783901118329,1754,AppleTree Early Learning PCS - Waterfront Station,1000 4TH STREET SW,,,,PK3-PK4,0,chrt_179,https://www.appletreeinstitute.org/,0,Y,2024-2025,AppleTree Early Learning PCS - Waterfront Station,103,AppleTree Early Learning PCS - Waterfront Station,514,514,PK3-PK4,38.87838266,-77.01708548,,,Ward 6,20024,307103,398517.49,134505.71,,{F48A2F2E-FFF3-4B05-B5DB-01EFD44AA24A},JLAY,2023/11/21 16:46:25+00,JLAY,2023/11/17 19:17:06+00
-76.9827695797765,38.8661578497857,1755,DC Wildflower PCS - Blue Montessori,1515 GOOD HOPE ROAD SE,,,,PK3-PK4,0,chrt_180,https://www.dcwildflowerpcs.org/,0,Y,2024-2025,DC Wildflower PCS - Blue Montessori,,DC Wildflower PCS - Blue Montessori,515,515,PK3-PK4,38.8661504,-76.9827673,,,Ward 8,20020,61906,401495.54,133147.84,,{CF12BB83-A9ED-4CB7-84D0-5A6405F18D33},JLAY,2023/11/21 16:46:25+00,JLAY,2023/11/21 16:46:25+00
